{"type":"FeatureCollection","bbox":[89.7,-10.05,140.8,50.2],"features":[{"type":"Feature","properties":{"site_id":"rf001","name":"Eastern Sundarbans, Khulna","country":"Bangladesh","section":"Bangladesh","wetland_type":"coastal","protected":true,"pc1":42,"rank":null,"pc1_band":"lg","species_count":3,"designations":"","threatened":"CR","importance":""},"geometry":{"type":"Point","coordinates":[89.7,22]}},{"type":"Feature","properties":{"site_id":"rf002","name":"Eastern Meghna Delta, Chittagong","country":"Bangladesh","section":"Bangladesh","wetland_type":"coastal","protected":true,"pc1":30.3,"rank":null,"pc1_band":"lg","species_count":4,"designations":"","threatened":"CR,EN","importance":""},"geometry":{"type":"Point","coordinates":[91.27,22.47]}},{"type":"Feature","properties":{"site_id":"rf003","name":"Hatia Island (including Nijhum Dwip National Park), Chittagong","country":"Bangladesh","section":"Bangladesh","wetland_type":"coastal","protected":true,"pc1":16.9,"rank":null,"pc1_band":"md","species_count":3,"designations":"FR","threatened":"EN","importance":""},"geometry":{"type":"Point","coordinates":[91.07,22.08]}},{"type":"Feature","properties":{"site_id":"rf004","name":"Tanguar Haor and Panabeel, Sylhet","country":"Bangladesh","section":"Bangladesh","wetland_type":"inland","protected":true,"pc1":16.2,"rank":null,"pc1_band":"md","species_count":5,"designations":"","threatened":"","importance":""},"geometry":{"type":"Point","coordinates":[91.03,25.13]}},{"type":"Feature","properties":{"site_id":"rf005","name":"Hakaluki Haor , Sylhet","country":"Bangladesh","section":"Bangladesh","wetland_type":"inland","protected":true,"pc1":7.6,"rank":null,"pc1_band":"sm","species_count":4,"designations":"F","threatened":"","importance":""},"geometry":{"type":"Point","coordinates":[92.08,24.65]}},{"type":"Feature","properties":{"site_id":"rf006","name":"Sonadia Island , Chittagong","country":"Bangladesh","section":"Bangladesh","wetland_type":"coastal","protected":true,"pc1":4.9,"rank":null,"pc1_band":"sm","species_count":2,"designations":"F","threatened":"CR","importance":""},"geometry":{"type":"Point","coordinates":[91.88,21.5]}},{"type":"Feature","properties":{"site_id":"rf007","name":"Central Meghna Delta, Barisal","country":"Bangladesh","section":"Bangladesh","wetland_type":"coastal","protected":true,"pc1":3.5,"rank":null,"pc1_band":"sm","species_count":3,"designations":"F","threatened":"","importance":""},"geometry":{"type":"Point","coordinates":[90.62,21.93]}},{"type":"Feature","properties":{"site_id":"rf008","name":"Hail Haor (including Bakka Beel), Sylhet","country":"Bangladesh","section":"Bangladesh","wetland_type":"inland","protected":true,"pc1":1.1,"rank":null,"pc1_band":"xs","species_count":1,"designations":"","threatened":"","importance":""},"geometry":{"type":"Point","coordinates":[91.68,24.37]}},{"type":"Feature","properties":{"site_id":"rf009","name":"Prek Toal (part of Tonle Sap Biosphere Reserve), Battambang","country":"Cambodia","section":"Cambodia","wetland_type":"coastal","protected":true,"pc1":250.7,"rank":null,"pc1_band":"xl","species_count":6,"designations":"","threatened":"CR,EN","importance":""},"geometry":{"type":"Point","coordinates":[103.65,13.12]}},{"type":"Feature","properties":{"site_id":"rf010","name":"Ang Tropeang Thmor (Sarus Crane Reserve), Siem Reap","country":"Cambodia","section":"Cambodia","wetland_type":"inland","protected":true,"pc1":33.3,"rank":null,"pc1_band":"lg","species_count":5,"designations":"","threatened":"VU","importance":""},"geometry":{"type":"Point","coordinates":[103.31,13.82]}},{"type":"Feature","properties":{"site_id":"rf011","name":"Boeung Prek Lapouv (Sarus Crane Reserve), Takeo","country":"Cambodia","section":"Cambodia","wetland_type":"inland","protected":true,"pc1":30.4,"rank":null,"pc1_band":"lg","species_count":2,"designations":"F","threatened":"VU","importance":""},"geometry":{"type":"Point","coordinates":[105.03,10.72]}},{"type":"Feature","properties":{"site_id":"rf012","name":"Anlung Pring (Sarus Crane Reserve), Kampot","country":"Cambodia","section":"Cambodia","wetland_type":"inland","protected":true,"pc1":21.3,"rank":null,"pc1_band":"md","species_count":2,"designations":"R","threatened":"VU","importance":""},"geometry":{"type":"Point","coordinates":[104.53,10.48]}},{"type":"Feature","properties":{"site_id":"rf013","name":"Boeng Chhmar Ramsar Site, Kampong Thom","country":"Cambodia","section":"Cambodia","wetland_type":"inland","protected":true,"pc1":19.4,"rank":null,"pc1_band":"md","species_count":3,"designations":"","threatened":"EN","importance":""},"geometry":{"type":"Point","coordinates":[104.29,12.83]}},{"type":"Feature","properties":{"site_id":"rf014","name":"Chi Kreng, Siem Reap","country":"Cambodia","section":"Cambodia","wetland_type":"inland","protected":true,"pc1":5.4,"rank":null,"pc1_band":"sm","species_count":2,"designations":"","threatened":"VU","importance":""},"geometry":{"type":"Point","coordinates":[104.42,13.01]}},{"type":"Feature","properties":{"site_id":"rf015","name":"Kulen Promtep Wildlife Sanctuary (Memey River), Preah Vihear","country":"Cambodia","section":"Cambodia","wetland_type":"inland","protected":true,"pc1":4.7,"rank":null,"pc1_band":"sm","species_count":1,"designations":"R","threatened":"CR","importance":""},"geometry":{"type":"Point","coordinates":[104.52,14.02]}},{"type":"Feature","properties":{"site_id":"rf016","name":"Koh Kapik (Peam Krasop Wildlife Sanctuary), Koh Kong","country":"Cambodia","section":"Cambodia","wetland_type":"inland","protected":true,"pc1":3.2,"rank":null,"pc1_band":"sm","species_count":2,"designations":"","threatened":"EN","importance":""},"geometry":{"type":"Point","coordinates":[102.97,11.54]}},{"type":"Feature","properties":{"site_id":"rf017","name":"Stoung, Kampong Thom","country":"Cambodia","section":"Cambodia","wetland_type":"inland","protected":false,"pc1":1,"rank":null,"pc1_band":"xs","species_count":1,"designations":"","threatened":"VU","importance":""},"geometry":{"type":"Point","coordinates":[104.47,12.99]}},{"type":"Feature","properties":{"site_id":"rf018","name":"Yalu Jiang estuary","country":"PRC","section":"Liaoning Province","wetland_type":"coastal","protected":true,"pc1":308.66,"rank":null,"pc1_band":"xl","species_count":31,"designations":"","threatened":"CR,EN,VU","importance":""},"geometry":{"type":"Point","coordinates":[124.1,39.83]}},{"type":"Feature","properties":{"site_id":"rf019","name":"Liaohe Estuary National Nature Reserve and Inner Gulf of Liaodong","country":"PRC","section":"Liaoning Province","wetland_type":"coastal","protected":true,"pc1":272.71,"rank":null,"pc1_band":"xl","species_count":31,"designations":"","threatened":"CR,EN,VU","importance":""},"geometry":{"type":"Point","coordinates":[121.78,40.9]}},{"type":"Feature","properties":{"site_id":"rf020","name":"Zhuanghe coast","country":"PRC","section":"Liaoning Province","wetland_type":"coastal","protected":true,"pc1":30.44,"rank":null,"pc1_band":"lg","species_count":11,"designations":"FR","threatened":"EN,VU","importance":""},"geometry":{"type":"Point","coordinates":[123.03,39.67]}},{"type":"Feature","properties":{"site_id":"rf021","name":"Pulandian-Jinzhou east coast, including Changshan Islands","country":"PRC","section":"Liaoning Province","wetland_type":"coastal","protected":true,"pc1":27,"rank":null,"pc1_band":"md","species_count":6,"designations":"","threatened":"EN","importance":""},"geometry":{"type":"Point","coordinates":[122.3,39.37]}},{"type":"Feature","properties":{"site_id":"rf022","name":"Jinzhou Bay, Dalian","country":"PRC","section":"Liaoning Province","wetland_type":"coastal","protected":true,"pc1":19.8,"rank":null,"pc1_band":"md","species_count":2,"designations":"","threatened":"","importance":""},"geometry":{"type":"Point","coordinates":[121.6,39.17]}},{"type":"Feature","properties":{"site_id":"rf023","name":"Luannan-Zuidong coast","country":"PRC","section":"Hebei Province","wetland_type":"coastal","protected":true,"pc1":199.05,"rank":null,"pc1_band":"xl","species_count":22,"designations":"","threatened":"EN,VU","importance":""},"geometry":{"type":"Point","coordinates":[118.2,39.1]}},{"type":"Feature","properties":{"site_id":"rf024","name":"Huanghua-Cangzhou coast","country":"PRC","section":"Hebei Province","wetland_type":"coastal","protected":true,"pc1":84.61,"rank":null,"pc1_band":"lg","species_count":30,"designations":"","threatened":"CR,EN,VU","importance":""},"geometry":{"type":"Point","coordinates":[117.67,38.43]}},{"type":"Feature","properties":{"site_id":"rf025","name":"Laoting-Caofeidian coast","country":"PRC","section":"Hebei Province","wetland_type":"coastal","protected":true,"pc1":17.08,"rank":null,"pc1_band":"md","species_count":8,"designations":"","threatened":"EN","importance":""},"geometry":{"type":"Point","coordinates":[118.73,39.02]}},{"type":"Feature","properties":{"site_id":"rf026","name":"Tianjin coastal mudflats","country":"PRC","section":"Tianjin Municipality","wetland_type":"coastal","protected":true,"pc1":174.14,"rank":null,"pc1_band":"xl","species_count":34,"designations":"R","threatened":"EN,VU","importance":""},"geometry":{"type":"Point","coordinates":[117.75,38.92]}},{"type":"Feature","properties":{"site_id":"rf027","name":"Beidagang Wetland Nature Reserve","country":"PRC","section":"Tianjin Municipality","wetland_type":"coastal","protected":true,"pc1":81.19,"rank":null,"pc1_band":"lg","species_count":14,"designations":"","threatened":"CR,EN","importance":""},"geometry":{"type":"Point","coordinates":[117.38,38.75]}},{"type":"Feature","properties":{"site_id":"rf028","name":"Yellow River Delta National Nature Reserve","country":"PRC","section":"Shandong Province","wetland_type":"coastal","protected":true,"pc1":595.48,"rank":null,"pc1_band":"xl","species_count":53,"designations":"","threatened":"CR,EN,VU","importance":""},"geometry":{"type":"Point","coordinates":[118.97,37.97]}},{"type":"Feature","properties":{"site_id":"rf029","name":"Qingdao coast and Jiaozhou Bay","country":"PRC","section":"Shandong Province","wetland_type":"coastal","protected":true,"pc1":78.15,"rank":null,"pc1_band":"lg","species_count":13,"designations":"","threatened":"CR,EN,VU","importance":""},"geometry":{"type":"Point","coordinates":[120.2,36.18]}},{"type":"Feature","properties":{"site_id":"rf030","name":"Laizhou Bay","country":"PRC","section":"Shandong Province","wetland_type":"coastal","protected":true,"pc1":24.16,"rank":null,"pc1_band":"md","species_count":6,"designations":"","threatened":"","importance":""},"geometry":{"type":"Point","coordinates":[119.4,37.1]}},{"type":"Feature","properties":{"site_id":"rf031","name":"Wudi-Zhanhua-Hekou coast","country":"PRC","section":"Shandong Province","wetland_type":"coastal","protected":true,"pc1":15.63,"rank":null,"pc1_band":"md","species_count":6,"designations":"F","threatened":"EN,VU","importance":""},"geometry":{"type":"Point","coordinates":[118.2,38.13]}},{"type":"Feature","properties":{"site_id":"rf032","name":"Rongcheng Swan Nature Reserve","country":"PRC","section":"Shandong Province","wetland_type":"coastal","protected":true,"pc1":11.85,"rank":null,"pc1_band":"md","species_count":1,"designations":"","threatened":"","importance":""},"geometry":{"type":"Point","coordinates":[122.57,37.25]}},{"type":"Feature","properties":{"site_id":"rf033","name":"Lianyungang coast","country":"PRC","section":"Jiangsu Province","wetland_type":"coastal","protected":false,"pc1":344.15,"rank":null,"pc1_band":"xl","species_count":30,"designations":"","threatened":"EN,VU","importance":""},"geometry":{"type":"Point","coordinates":[119.52,34.62]}},{"type":"Feature","properties":{"site_id":"rf034","name":"Tiaozini (Dongtai coast","country":"PRC","section":"Jiangsu Province","wetland_type":"coastal","protected":true,"pc1":318.33,"rank":null,"pc1_band":"xl","species_count":26,"designations":"FR","threatened":"CR,EN,VU","importance":""},"geometry":{"type":"Point","coordinates":[120.97,32.75]}},{"type":"Feature","properties":{"site_id":"rf035","name":"Yancheng National Nature Reserve","country":"PRC","section":"Jiangsu Province","wetland_type":"coastal","protected":true,"pc1":195.7,"rank":null,"pc1_band":"xl","species_count":30,"designations":"","threatened":"CR,EN,VU","importance":""},"geometry":{"type":"Point","coordinates":[120.52,33.72]}},{"type":"Feature","properties":{"site_id":"rf036","name":"Ganyu coast","country":"PRC","section":"Jiangsu Province","wetland_type":"coastal","protected":true,"pc1":194.23,"rank":null,"pc1_band":"xl","species_count":21,"designations":"","threatened":"EN,VU","importance":""},"geometry":{"type":"Point","coordinates":[119.2,34.97]}},{"type":"Feature","properties":{"site_id":"rf037","name":"Dongling coast","country":"PRC","section":"Jiangsu Province","wetland_type":"coastal","protected":true,"pc1":126.56,"rank":null,"pc1_band":"xl","species_count":21,"designations":"","threatened":"CR,EN,VU","importance":""},"geometry":{"type":"Point","coordinates":[121.45,32.15]}},{"type":"Feature","properties":{"site_id":"rf038","name":"Rudong coast","country":"PRC","section":"Jiangsu Province","wetland_type":"coastal","protected":true,"pc1":84.02,"rank":null,"pc1_band":"lg","species_count":24,"designations":"","threatened":"CR,EN,VU","importance":""},"geometry":{"type":"Point","coordinates":[121.17,32.52]}},{"type":"Feature","properties":{"site_id":"rf039","name":"Dongsha shoals , PRC","country":"PRC","section":"Jiangsu Province","wetland_type":"coastal","protected":true,"pc1":41.72,"rank":null,"pc1_band":"lg","species_count":11,"designations":"","threatened":"EN","importance":""},"geometry":{"type":"Point","coordinates":[121.23,33]}},{"type":"Feature","properties":{"site_id":"rf040","name":"Chongming Dongtan National Nature Reserve","country":"PRC","section":"Shanghai Municipality","wetland_type":"coastal","protected":true,"pc1":43.36,"rank":null,"pc1_band":"lg","species_count":14,"designations":"","threatened":"CR,EN,VU","importance":""},"geometry":{"type":"Point","coordinates":[122,31.48]}},{"type":"Feature","properties":{"site_id":"rf041","name":"Nanhui coast (including Nanhui Wetlands Park","country":"PRC","section":"Shanghai Municipality","wetland_type":"coastal","protected":true,"pc1":15.72,"rank":null,"pc1_band":"md","species_count":6,"designations":"","threatened":"","importance":""},"geometry":{"type":"Point","coordinates":[121.97,30.93]}},{"type":"Feature","properties":{"site_id":"rf042","name":"Wenzhou Bay","country":"PRC","section":"Zhejiang Province","wetland_type":"coastal","protected":true,"pc1":94.14,"rank":null,"pc1_band":"lg","species_count":19,"designations":"","threatened":"CR,EN,VU","importance":""},"geometry":{"type":"Point","coordinates":[120.88,27.92]}},{"type":"Feature","properties":{"site_id":"rf043","name":"Hangzhou Bay","country":"PRC","section":"Zhejiang Province","wetland_type":"coastal","protected":true,"pc1":43.8,"rank":null,"pc1_band":"lg","species_count":16,"designations":"","threatened":"CR,VU","importance":""},"geometry":{"type":"Point","coordinates":[121,30.33]}},{"type":"Feature","properties":{"site_id":"rf044","name":"Min Jiang estuary","country":"PRC","section":"Fujian Province","wetland_type":"coastal","protected":true,"pc1":52.36,"rank":null,"pc1_band":"lg","species_count":15,"designations":"","threatened":"CR,EN,VU","importance":""},"geometry":{"type":"Point","coordinates":[119.63,26.12]}},{"type":"Feature","properties":{"site_id":"rf045","name":"Quanzhou Bay, including Jin Jiang estuary","country":"PRC","section":"Fujian Province","wetland_type":"coastal","protected":true,"pc1":24.77,"rank":null,"pc1_band":"md","species_count":12,"designations":"","threatened":"VU","importance":""},"geometry":{"type":"Point","coordinates":[118.67,24.85]}},{"type":"Feature","properties":{"site_id":"rf046","name":"Xiamen coast","country":"PRC","section":"Fujian Province","wetland_type":"coastal","protected":true,"pc1":13.49,"rank":null,"pc1_band":"md","species_count":6,"designations":"","threatened":"EN,VU","importance":""},"geometry":{"type":"Point","coordinates":[118.08,24.57]}},{"type":"Feature","properties":{"site_id":"rf047","name":"Xinghua Bay","country":"PRC","section":"Fujian Province","wetland_type":"coastal","protected":false,"pc1":12.94,"rank":null,"pc1_band":"md","species_count":5,"designations":"","threatened":"EN,VU","importance":""},"geometry":{"type":"Point","coordinates":[119.18,25.45]}},{"type":"Feature","properties":{"site_id":"rf048","name":"Inner Deep Bay and Shenzhen River catchment","country":"PRC","section":"Guangdong Province","wetland_type":"coastal","protected":true,"pc1":68.84,"rank":null,"pc1_band":"lg","species_count":24,"designations":"R","threatened":"CR,EN","importance":""},"geometry":{"type":"Point","coordinates":[114.02,22.5]}},{"type":"Feature","properties":{"site_id":"rf049","name":"Haifeng wetlands","country":"PRC","section":"Guangdong Province","wetland_type":"coastal","protected":true,"pc1":12.78,"rank":null,"pc1_band":"md","species_count":6,"designations":"R","threatened":"EN","importance":""},"geometry":{"type":"Point","coordinates":[115.22,22.83]}},{"type":"Feature","properties":{"site_id":"rf050","name":"Zhanjiang-Leizhou Peninsula coast","country":"PRC","section":"Guangdong Province","wetland_type":"coastal","protected":true,"pc1":12.62,"rank":null,"pc1_band":"md","species_count":7,"designations":"","threatened":"CR,EN,VU","importance":""},"geometry":{"type":"Point","coordinates":[110.2,20.85]}},{"type":"Feature","properties":{"site_id":"rf051","name":"Dongzhaigang Nature Reserve","country":"PRC","section":"Hainan Province","wetland_type":"coastal","protected":true,"pc1":16.69,"rank":null,"pc1_band":"md","species_count":4,"designations":"","threatened":"","importance":""},"geometry":{"type":"Point","coordinates":[110.57,20.02]}},{"type":"Feature","properties":{"site_id":"rf052","name":"Danzhou-Lingao coast","country":"PRC","section":"Hainan Province","wetland_type":"coastal","protected":false,"pc1":9.29,"rank":null,"pc1_band":"sm","species_count":1,"designations":"","threatened":"","importance":""},"geometry":{"type":"Point","coordinates":[109.23,19.73]}},{"type":"Feature","properties":{"site_id":"rf053","name":"Beihai coast","country":"PRC","section":"Guangxi Province","wetland_type":"coastal","protected":false,"pc1":11.01,"rank":null,"pc1_band":"md","species_count":5,"designations":"R","threatened":"CR","importance":""},"geometry":{"type":"Point","coordinates":[109.32,21.45]}},{"type":"Feature","properties":{"site_id":"rf054","name":"Fangcheng coast","country":"PRC","section":"Guangxi Province","wetland_type":"coastal","protected":false,"pc1":8.49,"rank":null,"pc1_band":"sm","species_count":3,"designations":"R","threatened":"CR","importance":""},"geometry":{"type":"Point","coordinates":[108.15,21.57]}},{"type":"Feature","properties":{"site_id":"rf055","name":"Zhalong National Nature Reserve","country":"PRC","section":"Heilongjiang Province","wetland_type":"inland","protected":true,"pc1":null,"rank":null,"pc1_band":"rank","species_count":0,"designations":"FR","threatened":"","importance":"Zhalong NNR comprises extensive reedbeds, pools and marshland that supports large numbers of breeding and migrating waterbirds, notably an important breeding population of Red-crowned Crane (VU). The wetlands there have experienced serious ecological problems and lost some of their value for migratory waterbirds, but measures are underway to reverse the trends of increasing ecological degradation (Su et al.2011)."},"geometry":{"type":"Point","coordinates":[124.2,47.2]}},{"type":"Feature","properties":{"site_id":"rf056","name":"Xingkai Lake National Nature Reserve","country":"PRC","section":"Heilongjiang Province","wetland_type":"inland","protected":true,"pc1":null,"rank":null,"pc1_band":"rank","species_count":0,"designations":"FR","threatened":"","importance":"Xingkai Lake (Lake Khanka) is a large transboundary freshwater lake on the border between the PRCand the Russian Federation The extensive floodplain wetlands around the lake provide stopover and breeding habitats for up to two million waterbirds, notably large congregations of Red-crowned Crane (VU) and Oriental Stork (EN). 32 At least 14 waterbird species have internationally important populations in the national nature reserve (RIS)"},"geometry":{"type":"Point","coordinates":[132.57,45.3]}},{"type":"Feature","properties":{"site_id":"rf057","name":"Sanjiang National Nature Reserve","country":"PRC","section":"Heilongjiang Province","wetland_type":"inland","protected":true,"pc1":null,"rank":null,"pc1_band":"rank","species_count":0,"designations":"","threatened":"","importance":"The Sanjiang Plain is an extensive delta alluvial plain where the Heilongjiang and Wusuli (Ussuri) Rivers converge. It supports 50,000-100,000 geese and ducks during the migration seasons, including up to 24,000 Swan Goose (VU), and also supports breeding populations of Red-crowned Crane (VU), White Crane (VU) and Oriental Stork (EN) (RIS)."},"geometry":{"type":"Point","coordinates":[134.5,47.9]}},{"type":"Feature","properties":{"site_id":"rf058","name":"Momoge National Nature Reserve","country":"PRC","section":"Jilin Province","wetland_type":"inland","protected":true,"pc1":null,"rank":null,"pc1_band":"rank","species_count":0,"designations":"FR","threatened":"","importance":"Momoge NNR comprises extensive marshlands, grasslands and agricultural land that support more than 100,000 waterbirds during the migration seasons, including Anatidae, cranes and Oriental Stork (EN). Most notably, approximately 95% of the global population of Siberian Crane (CR) stops over there on migration (Wang et al.2022)."},"geometry":{"type":"Point","coordinates":[123.75,46]}},{"type":"Feature","properties":{"site_id":"rf059","name":"Xianghai National Nature Reserve","country":"PRC","section":"Jilin Province","wetland_type":"inland","protected":true,"pc1":null,"rank":null,"pc1_band":"rank","species_count":0,"designations":"","threatened":"","importance":"Xianghai NNR is located at the western edge of the Songnen Plain, and the numerous lakes and extensive marshlands there are an important breeding and staging area for migratory waterbirds, including Anatidae, cranes and Oriental Stork (EN) (RIS). 33"},"geometry":{"type":"Point","coordinates":[122.33,45.08]}},{"type":"Feature","properties":{"site_id":"rf060","name":"Dalai Lake National Nature Reserve","country":"PRC","section":"Inner Mongolia","wetland_type":"inland","protected":true,"pc1":null,"rank":null,"pc1_band":"rank","species_count":0,"designations":"","threatened":"","importance":"Dalai Hu is one of the five largest freshwater lakes (by area) in PRC and is surrounded by vast areas of marshland and arid steppes. Hundreds of thousands of waterbirds stage or breed there every year, including at least 11 species that occur in internationally important numbers (RIS, SIS)."},"geometry":{"type":"Point","coordinates":[117.33,49]}},{"type":"Feature","properties":{"site_id":"rf061","name":"Wuliangsuhai National Nature Reserve","country":"PRC","section":"Inner Mongolia","wetland_type":"inland","protected":true,"pc1":null,"rank":null,"pc1_band":"rank","species_count":0,"designations":"","threatened":"","importance":"Wuliangsuhai is a large lake with extensive emergent vegetation, that is an important breeding and staging area for waterbirds in a vast arid region of northwest PRC . A waterbird survey in 2011 counted more than 165,900 individual birds there, including 19 species that exceeded 1% of flyway population thresholds, notably Swan Goose (VU), Far Eastern Curlew (EN) and Relict Gull (VU) (Zhang et al.2017)."},"geometry":{"type":"Point","coordinates":[108.83,41.1]}},{"type":"Feature","properties":{"site_id":"rf062","name":"Hebei Hengshui Lake National Nature Reserve","country":"PRC","section":"Yellow River Basin","wetland_type":"inland","protected":true,"pc1":null,"rank":null,"pc1_band":"rank","species_count":0,"designations":"F","threatened":"","importance":"Hengshui Lake NNR is an important breeding and stopover site for waterbirds in the arid North China Plain region. Nineteen waterbird species have occurred there in internationally important numbers, most notably around 15% of the global population of Baer’ Pochard (CR) and 30% of the flyway population of Bean Goose (Guo et al.2021). 34"},"geometry":{"type":"Point","coordinates":[115.6,37.6]}},{"type":"Feature","properties":{"site_id":"rf063","name":"Zhaling Lake-Er’ling, Lake National Nature Reserve","country":"PRC","section":"Qinghai Province","wetland_type":"inland","protected":true,"pc1":null,"rank":null,"pc1_band":"rank","species_count":0,"designations":"","threatened":"","importance":"Zhaling Lake-Er’ling Lake NNR includes two high-altitude lakes that are important for migratory waterbirds, including at least five species that exceed 1% of flyway population thresholds there, notably Black-necked Crane (VU) (Sun et al.2020, Gong 2022)."},"geometry":{"type":"Point","coordinates":[97.45,34.93]}},{"type":"Feature","properties":{"site_id":"rf064","name":"Gahai-Zecha National Nature Reserve","country":"PRC","section":"Gansu Province","wetland_type":"inland","protected":true,"pc1":null,"rank":null,"pc1_band":"rank","species_count":0,"designations":"","threatened":"","importance":"Gahai-Zecha NNR is a high-altitude wetland in arid Gansu Province, where at least four migratory waterbird species exceed 1% of flyway population thresholds, notably a large breeding population of Common Redshank and Black-necked Crane (VU) (RIS)."},"geometry":{"type":"Point","coordinates":[102.32,34.23]}},{"type":"Feature","properties":{"site_id":"rf065","name":"Shahu Lake National Wetland Park","country":"PRC","section":"Ningxia Province","wetland_type":"inland","protected":true,"pc1":null,"rank":null,"pc1_band":"rank","species_count":0,"designations":"","threatened":"","importance":"Shahu Lake National Wetland Park is one of the few extensive wetlands in arid Ningxia Province. Based on the habitats present it is considered likely to support significant populations of migratory waterbirds, but no surveys are known to have been conducte investigate their status. 35"},"geometry":{"type":"Point","coordinates":[106.35,38.82]}},{"type":"Feature","properties":{"site_id":"rf066","name":"Sh aanxi Province Hongjianlao National Nature Reserve","country":"PRC","section":"Ningxia Province","wetland_type":"inland","protected":true,"pc1":null,"rank":null,"pc1_band":"rank","species_count":0,"designations":"","threatened":"","importance":"Hongjianlao NNR is a wetland in an arid region of Shaanxi Province that in recent years has supported more than half of the global population of Relict Gull (VU), which nests on islands in the lake. At least three other migratory waterbird species exceed 1% of flyway population thresholds there, but the wetlands are subject to shrinkage linked to water extraction (Liang & Yan 2017, Liu 2017)."},"geometry":{"type":"Point","coordinates":[109.92,39.08]}},{"type":"Feature","properties":{"site_id":"rf067","name":"Shan xi Province Yuncheng Yellow River Wetland Provincial Nature Reserve","country":"PRC","section":"Ningxia Province","wetland_type":"inland","protected":true,"pc1":null,"rank":null,"pc1_band":"rank","species_count":0,"designations":"","threatened":"","importance":"Yuncheng Yellow River Wetland Provincial NR is the largest wetland nature reserve in Shanxi Province. It supports an important population of Whooper Swan, with more than 10,000 individuals estimated to spend the non-breeding period, and several other migratory waterbird species have exceeded 1% of flyway population thresholds there. 36"},"geometry":{"type":"Point","coordinates":[110.98,35.03]}},{"type":"Feature","properties":{"site_id":"rf068","name":"Yellow River Wetland National Nature Reserve","country":"PRC","section":"Henan Province","wetland_type":"inland","protected":true,"pc1":null,"rank":null,"pc1_band":"rank","species_count":0,"designations":"R","threatened":"","importance":"Yellow River Wetland NNR is an extensive area of riverine floodplain wetlands that is a demonstration site for ADB’s Yellow River Project. It supports a large non-breedingpopulation of Whooper Swan, and several other migratory waterbird species have exceeded 1% of flyway population thresholds there."},"geometry":{"type":"Point","coordinates":[112.5,34.87]}},{"type":"Feature","properties":{"site_id":"rf069","name":"Minquan Yellow River Old Riverway National Wetland Park","country":"PRC","section":"Henan Province","wetland_type":"inland","protected":true,"pc1":null,"rank":null,"pc1_band":"rank","species_count":0,"designations":"","threatened":"","importance":"Minquan Yellow River Old Riverway National Wetland Park comprises wetlands in the old channel of the Yellow River and is important for the conservation of migratory waterbirds (Li Changkan et al.2019). Waterbird surveys in 2017-2019 counted up to 60,000 individual birds there, including six species that exceeded 1% of flyway population thresholds, most notably around 12.5% of the global population of Baer’s Pochard (CR) (RIS)."},"geometry":{"type":"Point","coordinates":[115.32,34.65]}},{"type":"Feature","properties":{"site_id":"rf070","name":"Poyang Lake National Nature Reserve","country":"PRC","section":"Jiangxi Province","wetland_type":"inland","protected":true,"pc1":825.49,"rank":null,"pc1_band":"xl","species_count":18,"designations":"FR","threatened":"CR,EN,VU","importance":""},"geometry":{"type":"Point","coordinates":[115.97,29.17]}},{"type":"Feature","properties":{"site_id":"rf071","name":"Nanjishan Wetland Nature Reserve","country":"PRC","section":"Jiangxi Province","wetland_type":"inland","protected":true,"pc1":134.9,"rank":null,"pc1_band":"xl","species_count":14,"designations":"","threatened":"CR,EN,VU","importance":""},"geometry":{"type":"Point","coordinates":[116.28,29]}},{"type":"Feature","properties":{"site_id":"rf072","name":"East Dongting Lake National Nature Reserve","country":"PRC","section":"Hunan Province","wetland_type":"inland","protected":true,"pc1":134.53,"rank":null,"pc1_band":"xl","species_count":15,"designations":"R","threatened":"VU","importance":""},"geometry":{"type":"Point","coordinates":[112.92,29.33]}},{"type":"Feature","properties":{"site_id":"rf073","name":"West Dongting Lake National Nature Reserve","country":"PRC","section":"Hunan Province","wetland_type":"inland","protected":true,"pc1":13.88,"rank":null,"pc1_band":"md","species_count":4,"designations":"","threatened":"","importance":""},"geometry":{"type":"Point","coordinates":[112.2,28.82]}},{"type":"Feature","properties":{"site_id":"rf074","name":"Shengjin Lake Nature Reserve","country":"PRC","section":"Anhui Province","wetland_type":"inland","protected":true,"pc1":99.59,"rank":null,"pc1_band":"lg","species_count":9,"designations":"F","threatened":"VU","importance":""},"geometry":{"type":"Point","coordinates":[117.07,30.38]}},{"type":"Feature","properties":{"site_id":"rf075","name":"Anqing Yangtze Riverine Wetland Nature Reserve","country":"PRC","section":"Anhui Province","wetland_type":"inland","protected":true,"pc1":71.32,"rank":null,"pc1_band":"lg","species_count":11,"designations":"","threatened":"EN,VU","importance":""},"geometry":{"type":"Point","coordinates":[116.9,30.53]}},{"type":"Feature","properties":{"site_id":"rf076","name":"Wanghu Lake National Nature Reserve","country":"PRC","section":"Hubei Province","wetland_type":"inland","protected":true,"pc1":21.11,"rank":null,"pc1_band":"md","species_count":6,"designations":"R","threatened":"","importance":""},"geometry":{"type":"Point","coordinates":[115.33,29.87]}},{"type":"Feature","properties":{"site_id":"rf077","name":"Chenhu Lake Provincial Nature Reserve","country":"PRC","section":"Hubei Province","wetland_type":"inland","protected":true,"pc1":13.92,"rank":null,"pc1_band":"md","species_count":5,"designations":"","threatened":"","importance":""},"geometry":{"type":"Point","coordinates":[113.82,30.3]}},{"type":"Feature","properties":{"site_id":"rf078","name":"Batu Bara coast, North Sumatra","country":"Indonesia","section":"Indonesia","wetland_type":"coastal","protected":false,"pc1":44.9,"rank":null,"pc1_band":"lg","species_count":13,"designations":"FR","threatened":"EN","importance":""},"geometry":{"type":"Point","coordinates":[99.43,3.38]}},{"type":"Feature","properties":{"site_id":"rf079","name":"Banyuasin Peninsula and Berbak, -Sembilang National Park South Sumatra","country":"Indonesia","section":"Indonesia","wetland_type":"coastal","protected":true,"pc1":27.1,"rank":null,"pc1_band":"md","species_count":5,"designations":"","threatened":"EN","importance":""},"geometry":{"type":"Point","coordinates":[104.61,-1.89]}},{"type":"Feature","properties":{"site_id":"rf080","name":"Deli-Serdang , North Sumatra","country":"Indonesia","section":"Indonesia","wetland_type":"coastal","protected":true,"pc1":17.4,"rank":null,"pc1_band":"md","species_count":7,"designations":"FR","threatened":"EN","importance":""},"geometry":{"type":"Point","coordinates":[98.79,3.73]}},{"type":"Feature","properties":{"site_id":"rf081","name":"Wasur National Park, SouthPapua","country":"Indonesia","section":"Indonesia","wetland_type":"coastal","protected":true,"pc1":10.4,"rank":null,"pc1_band":"md","species_count":1,"designations":"","threatened":"","importance":""},"geometry":{"type":"Point","coordinates":[140.8,-8.6]}},{"type":"Feature","properties":{"site_id":"rf082","name":"Middle Mahakam Lakes, EastKalimantan","country":"Indonesia","section":"Indonesia","wetland_type":"inland","protected":true,"pc1":7.7,"rank":null,"pc1_band":"sm","species_count":1,"designations":"","threatened":"","importance":""},"geometry":{"type":"Point","coordinates":[116.2,-0.36]}},{"type":"Feature","properties":{"site_id":"rf083","name":"Sungai Progo Delta, -Trisik Beach, Yogyakarta","country":"Indonesia","section":"Indonesia","wetland_type":"coastal","protected":true,"pc1":7.4,"rank":null,"pc1_band":"sm","species_count":2,"designations":"","threatened":"","importance":""},"geometry":{"type":"Point","coordinates":[110.2,-7.98]}},{"type":"Feature","properties":{"site_id":"rf084","name":"Cemara Beach , Jambi","country":"Indonesia","section":"Indonesia","wetland_type":"coastal","protected":true,"pc1":7.1,"rank":null,"pc1_band":"sm","species_count":5,"designations":"","threatened":"EN","importance":""},"geometry":{"type":"Point","coordinates":[104.46,-1.42]}},{"type":"Feature","properties":{"site_id":"rf085","name":"East Aceh coast, Aceh","country":"Indonesia","section":"Indonesia","wetland_type":"coastal","protected":true,"pc1":5.3,"rank":null,"pc1_band":"sm","species_count":1,"designations":"","threatened":"","importance":""},"geometry":{"type":"Point","coordinates":[97.96,4.68]}},{"type":"Feature","properties":{"site_id":"rf086","name":"North Aceh coast, Aceh","country":"Indonesia","section":"Indonesia","wetland_type":"coastal","protected":true,"pc1":4.7,"rank":null,"pc1_band":"sm","species_count":2,"designations":"","threatened":"","importance":""},"geometry":{"type":"Point","coordinates":[97.45,5.22]}},{"type":"Feature","properties":{"site_id":"rf087","name":"Kupang Bay, East, Nusa Tenggara","country":"Indonesia","section":"Indonesia","wetland_type":"coastal","protected":true,"pc1":3.5,"rank":null,"pc1_band":"sm","species_count":1,"designations":"","threatened":"","importance":""},"geometry":{"type":"Point","coordinates":[123.78,-10.05]}},{"type":"Feature","properties":{"site_id":"rf088","name":"Sekopong Bay, Way Kambas National Park, Lampung","country":"Indonesia","section":"Indonesia","wetland_type":"coastal","protected":true,"pc1":2.2,"rank":null,"pc1_band":"xs","species_count":1,"designations":"","threatened":"","importance":""},"geometry":{"type":"Point","coordinates":[105.88,-4.9]}},{"type":"Feature","properties":{"site_id":"rf089","name":"Benoa Bay – Serangan Island, Bali","country":"Indonesia","section":"Indonesia","wetland_type":"coastal","protected":true,"pc1":2.1,"rank":null,"pc1_band":"xs","species_count":1,"designations":"","threatened":"","importance":""},"geometry":{"type":"Point","coordinates":[115.22,-8.74]}},{"type":"Feature","properties":{"site_id":"rf090","name":"Gresik and Surabaya coast (incl., Ujung Pangkah) , EastJava","country":"Indonesia","section":"Indonesia","wetland_type":"coastal","protected":true,"pc1":1.9,"rank":null,"pc1_band":"xs","species_count":1,"designations":"","threatened":"","importance":""},"geometry":{"type":"Point","coordinates":[112.62,-6.92]}},{"type":"Feature","properties":{"site_id":"rf091","name":"Asahan coast, North Sumatra","country":"Indonesia","section":"Indonesia","wetland_type":"coastal","protected":false,"pc1":1.4,"rank":null,"pc1_band":"xs","species_count":1,"designations":"","threatened":"","importance":""},"geometry":{"type":"Point","coordinates":[99.87,3.03]}},{"type":"Feature","properties":{"site_id":"rf092","name":"North Labuhan Batu coast, North Sumatra","country":"Indonesia","section":"Indonesia","wetland_type":"coastal","protected":false,"pc1":1.4,"rank":null,"pc1_band":"xs","species_count":1,"designations":"","threatened":"","importance":""},"geometry":{"type":"Point","coordinates":[99.99,2.77]}},{"type":"Feature","properties":{"site_id":"rf093","name":"Labuhan Batu coast, North Sumatra","country":"Indonesia","section":"Indonesia","wetland_type":"coastal","protected":false,"pc1":1.4,"rank":null,"pc1_band":"xs","species_count":1,"designations":"","threatened":"","importance":""},"geometry":{"type":"Point","coordinates":[100.16,2.7]}},{"type":"Feature","properties":{"site_id":"rf094","name":"North Seram coast (partly in Manusela National Park), Maluku","country":"Indonesia","section":"Indonesia","wetland_type":"coastal","protected":true,"pc1":1,"rank":null,"pc1_band":"xs","species_count":1,"designations":"","threatened":"CR","importance":""},"geometry":{"type":"Point","coordinates":[129.12,-2.95]}},{"type":"Feature","properties":{"site_id":"rf095","name":"Xe Pian NBCA (including Bueng Kiat Ngong wetlands) Champasak","country":"Lao PDR","section":"Lao People’s Democratic Republic","wetland_type":"inland","protected":true,"pc1":4.5,"rank":null,"pc1_band":"sm","species_count":2,"designations":"","threatened":"CR","importance":""},"geometry":{"type":"Point","coordinates":[106.06,14.56]}},{"type":"Feature","properties":{"site_id":"rf096","name":"Mekong River from Luang Prabang to Vientiane, Vientiane, - Xayabury","country":"Lao PDR","section":"Lao People’s Democratic Republic","wetland_type":"inland","protected":false,"pc1":2.2,"rank":null,"pc1_band":"xs","species_count":1,"designations":"","threatened":"","importance":""},"geometry":{"type":"Point","coordinates":[101.52,18.32]}},{"type":"Feature","properties":{"site_id":"rf097","name":"Dong Kanthung Protected Forest (proposed NBCA) Champasak","country":"Lao PDR","section":"Lao People’s Democratic Republic","wetland_type":"inland","protected":true,"pc1":2,"rank":null,"pc1_band":"xs","species_count":1,"designations":"","threatened":"CR","importance":""},"geometry":{"type":"Point","coordinates":[105.43,14.4]}},{"type":"Feature","properties":{"site_id":"rf098","name":"North-Central Selangor Coast, Selangor","country":"Malaysia","section":"Malaysia","wetland_type":"coastal","protected":true,"pc1":14.1,"rank":null,"pc1_band":"md","species_count":6,"designations":"","threatened":"EN","importance":""},"geometry":{"type":"Point","coordinates":[101.3,3.24]}},{"type":"Feature","properties":{"site_id":"rf099","name":"Sadong-Saribas Coast, Sarawak","country":"Malaysia","section":"Malaysia","wetland_type":"coastal","protected":false,"pc1":13.2,"rank":null,"pc1_band":"md","species_count":4,"designations":"","threatened":"VU","importance":""},"geometry":{"type":"Point","coordinates":[111.05,1.68]}},{"type":"Feature","properties":{"site_id":"rf100","name":"Buntal Bay , Sarawak","country":"Malaysia","section":"Malaysia","wetland_type":"coastal","protected":true,"pc1":9.2,"rank":null,"pc1_band":"sm","species_count":6,"designations":"F","threatened":"EN","importance":""},"geometry":{"type":"Point","coordinates":[110.39,1.69]}},{"type":"Feature","properties":{"site_id":"rf101","name":"Teluk Air Tawar-Kuala Muda IBA, Pulau Pinang","country":"Malaysia","section":"Malaysia","wetland_type":"coastal","protected":false,"pc1":8.4,"rank":null,"pc1_band":"sm","species_count":3,"designations":"","threatened":"EN","importance":""},"geometry":{"type":"Point","coordinates":[100.37,5.53]}},{"type":"Feature","properties":{"site_id":"rf102","name":"Mersing-Endau Coast, Johor","country":"Malaysia","section":"Malaysia","wetland_type":"coastal","protected":false,"pc1":2.2,"rank":null,"pc1_band":"xs","species_count":1,"designations":"","threatened":"","importance":""},"geometry":{"type":"Point","coordinates":[103.71,2.64]}},{"type":"Feature","properties":{"site_id":"rf103","name":"Pulau Bruit, Sarawak","country":"Malaysia","section":"Malaysia","wetland_type":"coastal","protected":false,"pc1":1.8,"rank":null,"pc1_band":"xs","species_count":1,"designations":"","threatened":"VU","importance":""},"geometry":{"type":"Point","coordinates":[111.29,2.58]}},{"type":"Feature","properties":{"site_id":"rf104","name":"Khar-Us Lake (including Khovd River Tributary and Khar Lake), Uvs Aimag","country":"Mongolia","section":"Mongolia","wetland_type":"inland","protected":true,"pc1":null,"rank":1,"pc1_band":"rank","species_count":27,"designations":"FR","threatened":"VU","importance":""},"geometry":{"type":"Point","coordinates":[92.17,47.75]}},{"type":"Feature","properties":{"site_id":"rf105","name":"Khurkh Khuiten, Khentii Aimag","country":"Mongolia","section":"Mongolia","wetland_type":"inland","protected":true,"pc1":null,"rank":2,"pc1_band":"rank","species_count":10,"designations":"FR","threatened":"VU","importance":""},"geometry":{"type":"Point","coordinates":[110.37,48.32]}},{"type":"Feature","properties":{"site_id":"rf106","name":"Mongol Daguur IBA including Ulz River and Khukh Lake (include SPA) , Dornod, Aimag","country":"Mongolia","section":"Mongolia","wetland_type":"inland","protected":true,"pc1":null,"rank":3,"pc1_band":"rank","species_count":16,"designations":"","threatened":"VU","importance":""},"geometry":{"type":"Point","coordinates":[115.25,49.72]}},{"type":"Feature","properties":{"site_id":"rf107","name":"Uvs Lake , Uvs Aimag","country":"Mongolia","section":"Mongolia","wetland_type":"inland","protected":true,"pc1":null,"rank":4,"pc1_band":"rank","species_count":6,"designations":"FR","threatened":"","importance":""},"geometry":{"type":"Point","coordinates":[92.28,50.2]}},{"type":"Feature","properties":{"site_id":"rf108","name":"Tolbo Lake, Bayan, -Olgii Aimag","country":"Mongolia","section":"Mongolia","wetland_type":"inland","protected":true,"pc1":null,"rank":5,"pc1_band":"rank","species_count":3,"designations":"","threatened":"","importance":""},"geometry":{"type":"Point","coordinates":[90.1,48.53]}},{"type":"Feature","properties":{"site_id":"rf109","name":"Airag Lake , Uvs Aimag","country":"Mongolia","section":"Mongolia","wetland_type":"inland","protected":true,"pc1":null,"rank":6,"pc1_band":"rank","species_count":8,"designations":"FR","threatened":"","importance":""},"geometry":{"type":"Point","coordinates":[93.43,48.9]}},{"type":"Feature","properties":{"site_id":"rf110","name":"Tashgain Tavan Lakes, Dornod Aimag","country":"Mongolia","section":"Mongolia","wetland_type":"inland","protected":false,"pc1":null,"rank":7,"pc1_band":"rank","species_count":8,"designations":"FR","threatened":"VU","importance":""},"geometry":{"type":"Point","coordinates":[118.45,47.37]}},{"type":"Feature","properties":{"site_id":"rf111","name":"Terkhiin Tsagaan Lake, Arkhangai Aimag","country":"Mongolia","section":"Mongolia","wetland_type":"inland","protected":true,"pc1":null,"rank":8,"pc1_band":"rank","species_count":6,"designations":"","threatened":"","importance":""},"geometry":{"type":"Point","coordinates":[99.75,48.17]}},{"type":"Feature","properties":{"site_id":"rf112","name":"Ogii Lake , Arkhangai Aimag","country":"Mongolia","section":"Mongolia","wetland_type":"inland","protected":true,"pc1":null,"rank":9,"pc1_band":"rank","species_count":9,"designations":"FR","threatened":"VU","importance":""},"geometry":{"type":"Point","coordinates":[102.7,47.77]}},{"type":"Feature","properties":{"site_id":"rf113","name":"Buir Lake , Dornod Aimag, (transboundary to Hulun Lake, PRC","country":"Mongolia","section":"Mongolia","wetland_type":"inland","protected":true,"pc1":null,"rank":10,"pc1_band":"rank","species_count":4,"designations":"FR","threatened":"VU","importance":""},"geometry":{"type":"Point","coordinates":[117.8,47.77]}},{"type":"Feature","properties":{"site_id":"rf114","name":"Valley of lakes (including Boon Tsagaan, Orog Lake and Taatsiin Tsagaan, Bayan-Khongor Aimag","country":"Mongolia","section":"Mongolia","wetland_type":"inland","protected":true,"pc1":null,"rank":11,"pc1_band":"rank","species_count":6,"designations":"R","threatened":"","importance":""},"geometry":{"type":"Point","coordinates":[100.12,45.3]}},{"type":"Feature","properties":{"site_id":"rf115","name":"North Manila Bay (Bulacan) (includes Pampanga River East Bank, - Santa Cruz-Caliligawan, -Pamawaran-Navotas-Taliptip-Tanza","country":"Philippines","section":"Philippines","wetland_type":"coastal","protected":false,"pc1":24.6,"rank":null,"pc1_band":"md","species_count":8,"designations":"FR","threatened":"","importance":""},"geometry":{"type":"Point","coordinates":[120.79,14.77]}},{"type":"Feature","properties":{"site_id":"rf116","name":"Olango Island Wildlife Sanctuary, Cebu","country":"Philippines","section":"Philippines","wetland_type":"coastal","protected":true,"pc1":24.6,"rank":null,"pc1_band":"md","species_count":7,"designations":"","threatened":"","importance":""},"geometry":{"type":"Point","coordinates":[124.05,10.25]}},{"type":"Feature","properties":{"site_id":"rf117","name":"Bangrin Marine Protected Area, Pangasinan","country":"Philippines","section":"Philippines","wetland_type":"coastal","protected":true,"pc1":21.1,"rank":null,"pc1_band":"md","species_count":2,"designations":"","threatened":"","importance":""},"geometry":{"type":"Point","coordinates":[119.93,16.25]}},{"type":"Feature","properties":{"site_id":"rf118","name":"Negros Occidental Coastal Wetlands Conservation Area (NOCWCA) , Negros Occidental","country":"Philippines","section":"Philippines","wetland_type":"coastal","protected":true,"pc1":14.8,"rank":null,"pc1_band":"md","species_count":9,"designations":"","threatened":"EN,VU","importance":""},"geometry":{"type":"Point","coordinates":[122.84,10.27]}},{"type":"Feature","properties":{"site_id":"rf119","name":"Lake Mainit, Agusan del Norte","country":"Philippines","section":"Philippines","wetland_type":"inland","protected":false,"pc1":13.8,"rank":null,"pc1_band":"md","species_count":1,"designations":"FR","threatened":"","importance":""},"geometry":{"type":"Point","coordinates":[125.52,9.46]}},{"type":"Feature","properties":{"site_id":"rf120","name":"North Manila Bay (Pampanga), (includes Pampanga River Westbank-Sasmuan Pampanga Coastal Wetlands","country":"Philippines","section":"Philippines","wetland_type":"coastal","protected":true,"pc1":12.2,"rank":null,"pc1_band":"md","species_count":5,"designations":"R","threatened":"","importance":""},"geometry":{"type":"Point","coordinates":[120.59,14.83]}},{"type":"Feature","properties":{"site_id":"rf121","name":"Agusan Marsh Wildlife Sanctuary, Agusan del Sur","country":"Philippines","section":"Philippines","wetland_type":"inland","protected":true,"pc1":6.9,"rank":null,"pc1_band":"sm","species_count":1,"designations":"","threatened":"","importance":""},"geometry":{"type":"Point","coordinates":[125.9,8.31]}},{"type":"Feature","properties":{"site_id":"rf122","name":"Candaba Wetlands, Pampanga","country":"Philippines","section":"Philippines","wetland_type":"coastal","protected":false,"pc1":5.2,"rank":null,"pc1_band":"sm","species_count":1,"designations":"F","threatened":"","importance":""},"geometry":{"type":"Point","coordinates":[120.88,15.07]}},{"type":"Feature","properties":{"site_id":"rf123","name":"Kabasalan-Siay Wetland Area, (also known as Sibugay Wetlands) Zamboanga-Sibugay","country":"Philippines","section":"Philippines","wetland_type":"coastal","protected":false,"pc1":3.1,"rank":null,"pc1_band":"sm","species_count":3,"designations":"","threatened":"","importance":""},"geometry":{"type":"Point","coordinates":[122.81,7.71]}},{"type":"Feature","properties":{"site_id":"rf124","name":"Panabo Coast, Davao del Norte","country":"Philippines","section":"Philippines","wetland_type":"coastal","protected":false,"pc1":3,"rank":null,"pc1_band":"sm","species_count":1,"designations":"","threatened":"CR","importance":""},"geometry":{"type":"Point","coordinates":[125.7,7.29]}},{"type":"Feature","properties":{"site_id":"rf125","name":"North Manila Bay (Bataan), – Balanga Wetlands Park-Pilar Wetlands","country":"Philippines","section":"Philippines","wetland_type":"coastal","protected":true,"pc1":2.6,"rank":null,"pc1_band":"xs","species_count":2,"designations":"FR","threatened":"","importance":""},"geometry":{"type":"Point","coordinates":[120.57,14.69]}},{"type":"Feature","properties":{"site_id":"rf126","name":"Tubbataha Reef Natural Park, Palawan","country":"Philippines","section":"Philippines","wetland_type":"inland","protected":true,"pc1":1.5,"rank":null,"pc1_band":"xs","species_count":2,"designations":"","threatened":"","importance":""},"geometry":{"type":"Point","coordinates":[120.06,8.89]}},{"type":"Feature","properties":{"site_id":"rf127","name":"Pak Thale-Laem Phak Bia coast, Phetchaburi","country":"Thailand","section":"Thailand","wetland_type":"coastal","protected":true,"pc1":26.1,"rank":null,"pc1_band":"md","species_count":8,"designations":"","threatened":"EN","importance":""},"geometry":{"type":"Point","coordinates":[100.07,13.07]}},{"type":"Feature","properties":{"site_id":"rf128","name":"Bueng Boraphet , Nakhon Sawan","country":"Thailand","section":"Thailand","wetland_type":"coastal","protected":true,"pc1":24.6,"rank":null,"pc1_band":"md","species_count":6,"designations":"","threatened":"","importance":""},"geometry":{"type":"Point","coordinates":[100.24,15.7]}},{"type":"Feature","properties":{"site_id":"rf129","name":"Pak Nam Prasae, Rayong","country":"Thailand","section":"Thailand","wetland_type":"coastal","protected":false,"pc1":6.1,"rank":null,"pc1_band":"sm","species_count":2,"designations":"","threatened":"EN","importance":""},"geometry":{"type":"Point","coordinates":[101.71,12.7]}},{"type":"Feature","properties":{"site_id":"rf130","name":"Huai Chorakhe Mak Reservoir, Buriram","country":"Thailand","section":"Thailand","wetland_type":"inland","protected":true,"pc1":5,"rank":null,"pc1_band":"sm","species_count":1,"designations":"FR","threatened":"VU","importance":""},"geometry":{"type":"Point","coordinates":[103.03,14.9]}},{"type":"Feature","properties":{"site_id":"rf131","name":"Krabi River Mouth, Krabi","country":"Thailand","section":"Thailand","wetland_type":"inland","protected":true,"pc1":4,"rank":null,"pc1_band":"sm","species_count":2,"designations":"","threatened":"EN","importance":""},"geometry":{"type":"Point","coordinates":[98.93,8.02]}},{"type":"Feature","properties":{"site_id":"rf132","name":"Khlong Tamru (Bang Pakong), Chachoengsao","country":"Thailand","section":"Thailand","wetland_type":"coastal","protected":false,"pc1":3.5,"rank":null,"pc1_band":"sm","species_count":2,"designations":"","threatened":"","importance":""},"geometry":{"type":"Point","coordinates":[100.94,13.48]}},{"type":"Feature","properties":{"site_id":"rf133","name":"Khlong Yai, Trat","country":"Thailand","section":"Thailand","wetland_type":"coastal","protected":false,"pc1":2.8,"rank":null,"pc1_band":"xs","species_count":2,"designations":"","threatened":"EN","importance":""},"geometry":{"type":"Point","coordinates":[102.88,11.78]}},{"type":"Feature","properties":{"site_id":"rf134","name":"Sanam Bin Reservoir, Buriram","country":"Thailand","section":"Thailand","wetland_type":"inland","protected":true,"pc1":2.5,"rank":null,"pc1_band":"xs","species_count":1,"designations":"","threatened":"VU","importance":""},"geometry":{"type":"Point","coordinates":[103.08,14.64]}},{"type":"Feature","properties":{"site_id":"rf135","name":"Ko Libong Non-Hunting Area and Hat Chao Mai National Park, Trang","country":"Thailand","section":"Thailand","wetland_type":"coastal","protected":true,"pc1":2.2,"rank":null,"pc1_band":"xs","species_count":2,"designations":"F","threatened":"EN","importance":""},"geometry":{"type":"Point","coordinates":[99.44,7.29]}},{"type":"Feature","properties":{"site_id":"rf136","name":"Khok Kham salt pans, Samut Sakhon","country":"Thailand","section":"Thailand","wetland_type":"coastal","protected":true,"pc1":1.9,"rank":null,"pc1_band":"xs","species_count":1,"designations":"","threatened":"EN","importance":""},"geometry":{"type":"Point","coordinates":[100.35,13.51]}},{"type":"Feature","properties":{"site_id":"rf137","name":"Phang-nga Bay , Phang Nga","country":"Thailand","section":"Thailand","wetland_type":"coastal","protected":true,"pc1":1.5,"rank":null,"pc1_band":"xs","species_count":1,"designations":"R","threatened":"","importance":""},"geometry":{"type":"Point","coordinates":[98.52,8.32]}},{"type":"Feature","properties":{"site_id":"rf138","name":"Bang Pu coast and fish ponds, Samut Prakan","country":"Thailand","section":"Thailand","wetland_type":"coastal","protected":false,"pc1":1.1,"rank":null,"pc1_band":"xs","species_count":1,"designations":"","threatened":"","importance":""},"geometry":{"type":"Point","coordinates":[100.74,13.5]}},{"type":"Feature","properties":{"site_id":"rf139","name":"Tram Chim National Park, Dong Thap","country":"Viet Nam","section":"Viet Nam","wetland_type":"coastal","protected":true,"pc1":7.8,"rank":null,"pc1_band":"sm","species_count":3,"designations":"","threatened":"VU","importance":""},"geometry":{"type":"Point","coordinates":[105.51,10.72]}},{"type":"Feature","properties":{"site_id":"rf140","name":"Thai Thuy (including Thai Binh Wetland Protected Area), Thai Binh","country":"Viet Nam","section":"Viet Nam","wetland_type":"coastal","protected":true,"pc1":6.3,"rank":null,"pc1_band":"sm","species_count":2,"designations":"","threatened":"","importance":""},"geometry":{"type":"Point","coordinates":[106.66,20.61]}},{"type":"Feature","properties":{"site_id":"rf141","name":"Can Gio (incl. Can Gio Biosphere Reserve, Ly Nhon & Can Thanh salt pans, and coastal flats), Ho Chi Minh City","country":"Viet Nam","section":"Viet Nam","wetland_type":"coastal","protected":true,"pc1":4,"rank":null,"pc1_band":"sm","species_count":2,"designations":"R","threatened":"","importance":""},"geometry":{"type":"Point","coordinates":[106.93,10.39]}},{"type":"Feature","properties":{"site_id":"rf142","name":"Xuan Thuy National Park, Nam Dinh","country":"Viet Nam","section":"Viet Nam","wetland_type":"coastal","protected":true,"pc1":2.8,"rank":null,"pc1_band":"xs","species_count":2,"designations":"","threatened":"EN","importance":""},"geometry":{"type":"Point","coordinates":[106.55,20.21]}},{"type":"Feature","properties":{"site_id":"rf143","name":"Binh Dai IBA, Ben Tre","country":"Viet Nam","section":"Viet Nam","wetland_type":"coastal","protected":false,"pc1":2.7,"rank":null,"pc1_band":"xs","species_count":1,"designations":"","threatened":"","importance":""},"geometry":{"type":"Point","coordinates":[106.76,10.08]}},{"type":"Feature","properties":{"site_id":"rf144","name":"Tan Thanh-Con Ngang coast, Tien Giang","country":"Viet Nam","section":"Viet Nam","wetland_type":"coastal","protected":false,"pc1":2.6,"rank":null,"pc1_band":"xs","species_count":1,"designations":"","threatened":"","importance":""},"geometry":{"type":"Point","coordinates":[106.76,10.26]}},{"type":"Feature","properties":{"site_id":"rf145","name":"Ba Tri IBA, Ben Tre","country":"Viet Nam","section":"Viet Nam","wetland_type":"coastal","protected":false,"pc1":2.4,"rank":null,"pc1_band":"xs","species_count":1,"designations":"","threatened":"","importance":""},"geometry":{"type":"Point","coordinates":[106.69,10.01]}},{"type":"Feature","properties":{"site_id":"rf146","name":"Do Son coast, Hai Phong","country":"Viet Nam","section":"Viet Nam","wetland_type":"coastal","protected":false,"pc1":1.8,"rank":null,"pc1_band":"xs","species_count":1,"designations":"","threatened":"VU","importance":""},"geometry":{"type":"Point","coordinates":[106.77,20.7]}},{"type":"Feature","properties":{"site_id":"rf147","name":"An Hai (Cat Hai) IBA, Hai Phong","country":"Viet Nam","section":"Viet Nam","wetland_type":"inland","protected":false,"pc1":1.3,"rank":null,"pc1_band":"xs","species_count":1,"designations":"","threatened":"","importance":""},"geometry":{"type":"Point","coordinates":[106.78,20.79]}}]}