{"type": "FeatureCollection", "features": [{"type": "Feature", "geometry": {"type": "MultiPolygon", "coordinates": [[[[120.79958333333333, 33.269999999999996], [120.79958333333333, 33.26], [120.795, 33.26], [120.795, 33.265], [120.75833333333334, 33.265], [120.75833333333334, 33.26], [120.73083333333334, 33.26], [120.73083333333334, 33.255], [120.70791666666666, 33.255], [120.70791666666666, 33.25], [120.68958333333333, 33.25], [120.68958333333333, 33.245], [120.67125, 33.245], [120.67125, 33.24], [120.6575, 33.24], [120.6575, 33.235], [120.64375, 33.235], [120.64375, 33.23], [120.63, 33.23], [120.63, 33.225], [120.61625, 33.225], [120.61625, 33.22], [120.60708333333334, 33.22], [120.60708333333334, 33.214999999999996], [120.59791666666666, 33.214999999999996], [120.59791666666666, 33.21], [120.58875, 33.21], [120.58875, 33.205], [120.57958333333333, 33.205], [120.57958333333333, 33.2], [120.57041666666666, 33.2], [120.57041666666666, 33.195], [120.56125, 33.195], [120.56125, 33.19], [120.55208333333333, 33.19], [120.55208333333333, 33.185], [120.5475, 33.185], [120.5475, 33.18], [120.53833333333333, 33.18], [120.53833333333333, 33.175], [120.53375, 33.175], [120.53375, 33.17], [120.52458333333333, 33.17], [120.52458333333333, 33.165], [120.52, 33.165], [120.52, 33.16], [120.51541666666667, 33.16], [120.51541666666667, 33.155], [120.51083333333334, 33.155], [120.51083333333334, 33.15], [120.50166666666667, 33.15], [120.50166666666667, 33.144999999999996], [120.49708333333334, 33.144999999999996], [120.49708333333334, 33.14], [120.49249999999999, 33.14], [120.49249999999999, 33.135], [120.48791666666666, 33.135], [120.48791666666666, 33.13], [120.48333333333333, 33.13], [120.48333333333333, 33.12], [120.47875, 33.12], [120.47875, 33.115], [120.47416666666666, 33.115], [120.47416666666666, 33.11], [120.46958333333333, 33.11], [120.46958333333333, 33.105], [120.465, 33.105], [120.465, 33.095], [120.46041666666666, 33.095], [120.46041666666666, 33.089999999999996], [120.45583333333333, 33.089999999999996], [120.45583333333333, 33.08], [120.45125, 33.08], [120.45125, 33.07], [120.44666666666666, 33.07], [120.44666666666666, 33.055], [120.44208333333333, 33.055], [120.44208333333333, 33.04], [120.4375, 33.04], [120.4375, 33.015], [120.43291666666667, 33.015], [120.43291666666667, 32.98], [120.4375, 32.98], [120.4375, 32.955], [120.44208333333333, 32.955], [120.44208333333333, 32.94], [120.44666666666666, 32.94], [120.44666666666666, 32.925], [120.45125, 32.925], [120.45125, 32.915], [120.45583333333333, 32.915], [120.45583333333333, 32.910000000000004], [120.46041666666666, 32.910000000000004], [120.46041666666666, 32.9], [120.465, 32.9], [120.465, 32.89], [120.46958333333333, 32.89], [120.46958333333333, 32.885], [120.47416666666666, 32.885], [120.47416666666666, 32.88], [120.47875, 32.88], [120.47875, 32.875], [120.48333333333333, 32.875], [120.48333333333333, 32.865], [120.48791666666666, 32.865], [120.48791666666666, 32.86], [120.49249999999999, 32.86], [120.49249999999999, 32.855000000000004], [120.49708333333334, 32.855000000000004], [120.49708333333334, 32.85], [120.50166666666667, 32.85], [120.50166666666667, 32.845], [120.51083333333334, 32.845], [120.51083333333334, 32.84], [120.51541666666667, 32.84], [120.51541666666667, 32.835], [120.52, 32.835], [120.52, 32.83], [120.52458333333333, 32.83], [120.52458333333333, 32.825], [120.53375, 32.825], [120.53375, 32.82], [120.53833333333333, 32.82], [120.53833333333333, 32.815], [120.5475, 32.815], [120.5475, 32.81], [120.55208333333333, 32.81], [120.55208333333333, 32.805], [120.56125, 32.805], [120.56125, 32.8], [120.57041666666666, 32.8], [120.57041666666666, 32.795], [120.57958333333333, 32.795], [120.57958333333333, 32.79], [120.58875, 32.79], [120.58875, 32.785000000000004], [120.59791666666666, 32.785000000000004], [120.59791666666666, 32.78], [120.60708333333334, 32.78], [120.60708333333334, 32.775], [120.61625, 32.775], [120.61625, 32.77], [120.63458333333334, 32.77], [120.63458333333334, 32.765], [120.64375, 32.765], [120.64375, 32.76], [120.6575, 32.76], [120.6575, 32.755], [120.67125, 32.755], [120.67125, 32.75], [120.68958333333333, 32.75], [120.68958333333333, 32.745000000000005], [120.70333333333333, 32.745000000000005], [120.70333333333333, 32.75], [120.70791666666666, 32.75], [120.70791666666666, 32.74], [120.73083333333334, 32.74], [120.73083333333334, 32.735], [120.75833333333334, 32.735], [120.75833333333334, 32.730000000000004], [120.79958333333333, 32.730000000000004], [120.79958333333333, 32.725], [120.905, 32.725], [120.905, 32.730000000000004], [120.94625, 32.730000000000004], [120.94625, 32.735], [120.97375, 32.735], [120.97375, 32.74], [120.99666666666667, 32.74], [120.99666666666667, 32.745000000000005], [121.00125, 32.745000000000005], [121.00125, 32.75], [121.00583333333334, 32.75], [121.00583333333334, 32.745000000000005], [121.015, 32.745000000000005], [121.015, 32.75], [121.01958333333333, 32.75], [121.01958333333333, 32.755], [121.02416666666667, 32.755], [121.02416666666667, 32.75], [121.03333333333333, 32.75], [121.03333333333333, 32.755], [121.04708333333333, 32.755], [121.04708333333333, 32.76], [121.06083333333333, 32.76], [121.06083333333333, 32.765], [121.07458333333334, 32.765], [121.07458333333334, 32.77], [121.08833333333334, 32.77], [121.08833333333334, 32.775], [121.0975, 32.775], [121.0975, 32.78], [121.10666666666667, 32.78], [121.10666666666667, 32.785000000000004], [121.11583333333334, 32.785000000000004], [121.11583333333334, 32.79], [121.125, 32.79], [121.125, 32.795], [121.13416666666667, 32.795], [121.13416666666667, 32.8], [121.14333333333333, 32.8], [121.14333333333333, 32.805], [121.14791666666667, 32.805], [121.14791666666667, 32.81], [121.15708333333333, 32.81], [121.15708333333333, 32.815], [121.16625, 32.815], [121.16625, 32.82], [121.17083333333333, 32.82], [121.17083333333333, 32.825], [121.18, 32.825], [121.18, 32.83], [121.18458333333334, 32.83], [121.18458333333334, 32.835], [121.18916666666667, 32.835], [121.18916666666667, 32.84], [121.19375000000001, 32.84], [121.19375000000001, 32.845], [121.20291666666667, 32.845], [121.20291666666667, 32.85], [121.20750000000001, 32.85], [121.20750000000001, 32.855000000000004], [121.21208333333334, 32.855000000000004], [121.21208333333334, 32.86], [121.21666666666667, 32.86], [121.21666666666667, 32.865], [121.22125, 32.865], [121.22125, 32.875], [121.22583333333334, 32.875], [121.22583333333334, 32.88], [121.23041666666667, 32.88], [121.23041666666667, 32.885], [121.235, 32.885], [121.235, 32.89], [121.23958333333334, 32.89], [121.23958333333334, 32.9], [121.24416666666667, 32.9], [121.24416666666667, 32.905], [121.24875, 32.905], [121.24875, 32.915], [121.25333333333334, 32.915], [121.25333333333334, 32.925], [121.25791666666667, 32.925], [121.25791666666667, 32.94], [121.2625, 32.94], [121.2625, 32.955], [121.26708333333333, 32.955], [121.26708333333333, 32.96], [121.25791666666667, 32.96], [121.25791666666667, 32.965], [121.26708333333333, 32.965], [121.26708333333333, 32.98], [121.27166666666668, 32.98], [121.27166666666668, 33.015], [121.26708333333333, 33.015], [121.26708333333333, 33.04], [121.2625, 33.04], [121.2625, 33.055], [121.25791666666667, 33.055], [121.25791666666667, 33.07], [121.25333333333334, 33.07], [121.25333333333334, 33.08], [121.24875, 33.08], [121.24875, 33.089999999999996], [121.24416666666667, 33.089999999999996], [121.24416666666667, 33.095], [121.23958333333334, 33.095], [121.23958333333334, 33.105], [121.235, 33.105], [121.235, 33.11], [121.23041666666667, 33.11], [121.23041666666667, 33.115], [121.22583333333334, 33.115], [121.22583333333334, 33.12], [121.22125, 33.12], [121.22125, 33.13], [121.21666666666667, 33.13], [121.21666666666667, 33.135], [121.21208333333334, 33.135], [121.21208333333334, 33.14], [121.20750000000001, 33.14], [121.20750000000001, 33.144999999999996], [121.20291666666667, 33.144999999999996], [121.20291666666667, 33.15], [121.19375000000001, 33.15], [121.19375000000001, 33.155], [121.18916666666667, 33.155], [121.18916666666667, 33.16], [121.18458333333334, 33.16], [121.18458333333334, 33.165], [121.18, 33.165], [121.18, 33.17], [121.17083333333333, 33.17], [121.17083333333333, 33.175], [121.16625, 33.175], [121.16625, 33.18], [121.15708333333333, 33.18], [121.15708333333333, 33.185], [121.1525, 33.185], [121.1525, 33.19], [121.14333333333333, 33.19], [121.14333333333333, 33.195], [121.13416666666667, 33.195], [121.13416666666667, 33.2], [121.125, 33.2], [121.125, 33.205], [121.11583333333334, 33.205], [121.11583333333334, 33.21], [121.10666666666667, 33.21], [121.10666666666667, 33.214999999999996], [121.0975, 33.214999999999996], [121.0975, 33.22], [121.08833333333334, 33.22], [121.08833333333334, 33.225], [121.07458333333334, 33.225], [121.07458333333334, 33.23], [121.06083333333333, 33.23], [121.06083333333333, 33.235], [121.04708333333333, 33.235], [121.04708333333333, 33.24], [121.03333333333333, 33.24], [121.03333333333333, 33.245], [121.015, 33.245], [121.015, 33.25], [120.99666666666667, 33.25], [120.99666666666667, 33.255], [120.97375, 33.255], [120.97375, 33.26], [120.94625, 33.26], [120.94625, 33.265], [120.90041666666667, 33.265], [120.90041666666667, 33.269999999999996], [120.86375, 33.269999999999996], [120.86375, 33.265], [120.85916666666667, 33.265], [120.85916666666667, 33.269999999999996], [120.79958333333333, 33.269999999999996]], [[120.81333333333333, 33.265], [120.81791666666666, 33.265], [120.81791666666666, 33.26], [120.81333333333333, 33.26], [120.81333333333333, 33.265]], [[120.84541666666667, 33.265], [120.85, 33.265], [120.85, 33.26], [120.84541666666667, 33.26], [120.84541666666667, 33.265]], [[120.80875, 33.26], [120.81333333333333, 33.26], [120.81333333333333, 33.255], [120.80875, 33.255], [120.80875, 33.26]], [[120.86833333333334, 33.26], [120.87291666666667, 33.26], [120.87291666666667, 33.255], [120.86833333333334, 33.255], [120.86833333333334, 33.26]], [[120.79041666666667, 33.255], [120.795, 33.255], [120.795, 33.25], [120.79041666666667, 33.25], [120.79041666666667, 33.255]], [[120.86833333333334, 33.245], [120.87291666666667, 33.245], [120.87291666666667, 33.24], [120.86833333333334, 33.24], [120.86833333333334, 33.245]], [[120.90041666666667, 33.245], [120.905, 33.245], [120.905, 33.24], [120.90041666666667, 33.24], [120.90041666666667, 33.245]], [[120.97375, 33.245], [120.97833333333334, 33.245], [120.97833333333334, 33.24], [120.97375, 33.24], [120.97375, 33.245]], [[120.69416666666666, 33.24], [120.69875, 33.24], [120.69875, 33.235], [120.69416666666666, 33.235], [120.69416666666666, 33.24]], [[120.80875, 33.24], [120.81333333333333, 33.24], [120.81333333333333, 33.235], [120.80875, 33.235], [120.80875, 33.24]], [[120.83625, 33.24], [120.84083333333334, 33.24], [120.84083333333334, 33.235], [120.83625, 33.235], [120.83625, 33.24]], [[120.85458333333334, 33.24], [120.85916666666667, 33.24], [120.85916666666667, 33.235], [120.85458333333334, 33.235], [120.85458333333334, 33.24]], [[120.86375, 33.24], [120.86833333333334, 33.24], [120.86833333333334, 33.235], [120.86375, 33.235], [120.86375, 33.24]], [[120.89125, 33.24], [120.89583333333333, 33.24], [120.89583333333333, 33.235], [120.89125, 33.235], [120.89125, 33.24]], [[120.92333333333333, 33.24], [120.92791666666668, 33.24], [120.92791666666668, 33.235], [120.92333333333333, 33.235], [120.92333333333333, 33.24]], [[120.95541666666666, 33.24], [120.96000000000001, 33.24], [120.96000000000001, 33.235], [120.95541666666666, 33.235], [120.95541666666666, 33.24]], [[120.69875, 33.235], [120.70333333333333, 33.235], [120.70333333333333, 33.225], [120.69875, 33.225], [120.69875, 33.235]], [[120.91875, 33.235], [120.92333333333333, 33.235], [120.92333333333333, 33.225], [120.91875, 33.225], [120.91875, 33.235]], [[121.0425, 33.235], [121.04708333333333, 33.235], [121.04708333333333, 33.23], [121.0425, 33.23], [121.0425, 33.235]], [[120.85916666666667, 33.23], [120.86375, 33.23], [120.86375, 33.225], [120.85916666666667, 33.225], [120.85916666666667, 33.23]], [[120.88208333333334, 33.23], [120.88666666666667, 33.23], [120.88666666666667, 33.225], [120.88208333333334, 33.225], [120.88208333333334, 33.23]], [[121.03791666666667, 33.23], [121.0425, 33.23], [121.0425, 33.225], [121.03791666666667, 33.225], [121.03791666666667, 33.23]], [[120.72625000000001, 33.225], [120.73083333333334, 33.225], [120.73083333333334, 33.22], [120.72625000000001, 33.22], [120.72625000000001, 33.225]], [[120.8225, 33.225], [120.82708333333333, 33.225], [120.82708333333333, 33.22], [120.8225, 33.22], [120.8225, 33.225]], [[120.8775, 33.225], [120.88208333333334, 33.225], [120.88208333333334, 33.22], [120.8775, 33.22], [120.8775, 33.225]], [[121.06541666666666, 33.225], [121.07000000000001, 33.225], [121.07000000000001, 33.22], [121.06541666666666, 33.22], [121.06541666666666, 33.225]], [[120.63, 33.22], [120.63458333333334, 33.22], [120.63458333333334, 33.214999999999996], [120.63, 33.214999999999996], [120.63, 33.22]], [[120.64833333333333, 33.22], [120.65291666666667, 33.22], [120.65291666666667, 33.214999999999996], [120.64833333333333, 33.214999999999996], [120.64833333333333, 33.22]], [[120.905, 33.214999999999996], [120.90958333333333, 33.214999999999996], [120.90958333333333, 33.21], [120.905, 33.21], [120.905, 33.214999999999996]], [[120.94166666666666, 33.214999999999996], [120.94625, 33.214999999999996], [120.94625, 33.21], [120.94166666666666, 33.21], [120.94166666666666, 33.214999999999996]], [[120.96916666666667, 33.214999999999996], [120.97375, 33.214999999999996], [120.97375, 33.21], [120.96916666666667, 33.21], [120.96916666666667, 33.214999999999996]], [[120.61166666666666, 33.21], [120.61625, 33.21], [120.61625, 33.205], [120.61166666666666, 33.205], [120.61166666666666, 33.21]], [[120.64375, 33.21], [120.64833333333333, 33.21], [120.64833333333333, 33.205], [120.64375, 33.205], [120.64375, 33.21]], [[120.75375, 33.21], [120.75833333333334, 33.21], [120.75833333333334, 33.205], [120.75375, 33.205], [120.75375, 33.21]], [[120.89125, 33.21], [120.89583333333333, 33.21], [120.89583333333333, 33.205], [120.89125, 33.205], [120.89125, 33.21]], [[120.65291666666667, 33.205], [120.6575, 33.205], [120.6575, 33.2], [120.65291666666667, 33.2], [120.65291666666667, 33.205]], [[120.72166666666666, 33.205], [120.72625000000001, 33.205], [120.72625000000001, 33.2], [120.72166666666666, 33.2], [120.72166666666666, 33.205]], [[120.95083333333334, 33.205], [120.96000000000001, 33.205], [120.96000000000001, 33.2], [120.95083333333334, 33.2], [120.95083333333334, 33.205]], [[121.04708333333333, 33.205], [121.05166666666668, 33.205], [121.05166666666668, 33.2], [121.04708333333333, 33.2], [121.04708333333333, 33.205]], [[120.63916666666667, 33.2], [120.64375, 33.2], [120.64375, 33.195], [120.63916666666667, 33.195], [120.63916666666667, 33.2]], [[121.02416666666667, 33.2], [121.02875, 33.2], [121.02875, 33.195], [121.02416666666667, 33.195], [121.02416666666667, 33.2]], [[121.0425, 33.2], [121.04708333333333, 33.2], [121.04708333333333, 33.195], [121.0425, 33.195], [121.0425, 33.2]], [[120.69875, 33.195], [120.70333333333333, 33.195], [120.70333333333333, 33.19], [120.69875, 33.19], [120.69875, 33.195]], [[120.73541666666667, 33.195], [120.74, 33.195], [120.74, 33.19], [120.73541666666667, 33.19], [120.73541666666667, 33.195]], [[120.81333333333333, 33.195], [120.81791666666666, 33.195], [120.81791666666666, 33.19], [120.81333333333333, 33.19], [120.81333333333333, 33.195]], [[120.86375, 33.195], [120.86833333333334, 33.195], [120.86833333333334, 33.185], [120.86375, 33.185], [120.86375, 33.195]], [[120.97833333333334, 33.195], [120.98291666666667, 33.195], [120.98291666666667, 33.19], [120.97833333333334, 33.19], [120.97833333333334, 33.195]], [[120.56583333333333, 33.19], [120.575, 33.19], [120.575, 33.185], [120.56583333333333, 33.185], [120.56583333333333, 33.19]], [[120.72166666666666, 33.19], [120.72625000000001, 33.19], [120.72625000000001, 33.185], [120.72166666666666, 33.185], [120.72166666666666, 33.19]], [[120.88666666666667, 33.19], [120.89125, 33.19], [120.89125, 33.185], [120.88666666666667, 33.185], [120.88666666666667, 33.19]], [[120.55666666666667, 33.185], [120.56125, 33.185], [120.56125, 33.18], [120.55666666666667, 33.18], [120.55666666666667, 33.185]], [[120.91416666666667, 33.185], [120.91875, 33.185], [120.91875, 33.18], [120.91416666666667, 33.18], [120.91416666666667, 33.185]], [[120.92333333333333, 33.185], [120.92791666666668, 33.185], [120.92791666666668, 33.18], [120.92333333333333, 33.18], [120.92333333333333, 33.185]], [[120.98291666666667, 33.185], [120.9875, 33.185], [120.9875, 33.18], [120.98291666666667, 33.18], [120.98291666666667, 33.185]], [[121.00583333333334, 33.185], [121.01041666666667, 33.185], [121.01041666666667, 33.18], [121.00583333333334, 33.18], [121.00583333333334, 33.185]], [[121.01958333333333, 33.185], [121.02416666666667, 33.185], [121.02416666666667, 33.18], [121.01958333333333, 33.18], [121.01958333333333, 33.185]], [[120.68958333333333, 33.18], [120.69416666666666, 33.18], [120.69416666666666, 33.175], [120.68958333333333, 33.175], [120.68958333333333, 33.18]], [[120.80416666666667, 33.18], [120.80875, 33.18], [120.80875, 33.175], [120.80416666666667, 33.175], [120.80416666666667, 33.18]], [[120.85916666666667, 33.18], [120.87291666666667, 33.18], [120.87291666666667, 33.175], [120.85916666666667, 33.175], [120.85916666666667, 33.18]], [[120.88666666666667, 33.18], [120.89125, 33.18], [120.89125, 33.175], [120.88666666666667, 33.175], [120.88666666666667, 33.18]], [[120.91875, 33.18], [120.92333333333333, 33.18], [120.92333333333333, 33.175], [120.91875, 33.175], [120.91875, 33.18]], [[121.04708333333333, 33.18], [121.05166666666668, 33.18], [121.05166666666668, 33.175], [121.04708333333333, 33.175], [121.04708333333333, 33.18]], [[121.11583333333334, 33.18], [121.12041666666667, 33.18], [121.12041666666667, 33.175], [121.11583333333334, 33.175], [121.11583333333334, 33.18]], [[120.56125, 33.175], [120.56583333333333, 33.175], [120.56583333333333, 33.17], [120.56125, 33.17], [120.56125, 33.175]], [[121.015, 33.175], [121.01958333333333, 33.175], [121.01958333333333, 33.17], [121.015, 33.17], [121.015, 33.175]], [[121.08833333333334, 33.175], [121.09291666666667, 33.175], [121.09291666666667, 33.17], [121.08833333333334, 33.17], [121.08833333333334, 33.175]], [[120.575, 33.17], [120.57958333333333, 33.17], [120.57958333333333, 33.165], [120.575, 33.165], [120.575, 33.17]], [[120.69416666666666, 33.17], [120.69875, 33.17], [120.69875, 33.165], [120.69416666666666, 33.165], [120.69416666666666, 33.17]], [[120.73541666666667, 33.17], [120.74, 33.17], [120.74, 33.165], [120.73541666666667, 33.165], [120.73541666666667, 33.17]], [[120.74916666666667, 33.17], [120.75375, 33.17], [120.75375, 33.165], [120.74916666666667, 33.165], [120.74916666666667, 33.17]], [[120.86375, 33.17], [120.86833333333334, 33.17], [120.86833333333334, 33.165], [120.86375, 33.165], [120.86375, 33.17]], [[120.8775, 33.17], [120.88208333333334, 33.17], [120.88208333333334, 33.165], [120.8775, 33.165], [120.8775, 33.17]], [[120.58875, 33.165], [120.59333333333333, 33.165], [120.59333333333333, 33.16], [120.58875, 33.16], [120.58875, 33.165]], [[120.7125, 33.165], [120.71708333333333, 33.165], [120.71708333333333, 33.16], [120.7125, 33.16], [120.7125, 33.165]], [[120.87291666666667, 33.165], [120.8775, 33.165], [120.8775, 33.16], [120.87291666666667, 33.16], [120.87291666666667, 33.165]], [[120.90041666666667, 33.165], [120.905, 33.165], [120.905, 33.16], [120.90041666666667, 33.16], [120.90041666666667, 33.165]], [[121.13416666666667, 33.165], [121.13875, 33.165], [121.13875, 33.155], [121.13416666666667, 33.155], [121.13416666666667, 33.165]], [[120.75375, 33.16], [120.75833333333334, 33.16], [120.75833333333334, 33.15], [120.75375, 33.15], [120.75375, 33.16]], [[120.77666666666667, 33.16], [120.78125, 33.16], [120.78125, 33.155], [120.77666666666667, 33.155], [120.77666666666667, 33.16]], [[120.89583333333333, 33.16], [120.90041666666667, 33.16], [120.90041666666667, 33.155], [120.89583333333333, 33.155], [120.89583333333333, 33.16]], [[121.03791666666667, 33.16], [121.0425, 33.16], [121.0425, 33.155], [121.03791666666667, 33.155], [121.03791666666667, 33.16]], [[121.06083333333333, 33.16], [121.06541666666666, 33.16], [121.06541666666666, 33.155], [121.06083333333333, 33.155], [121.06083333333333, 33.16]], [[121.14333333333333, 33.16], [121.14791666666667, 33.16], [121.14791666666667, 33.155], [121.14333333333333, 33.155], [121.14333333333333, 33.16]], [[120.5475, 33.155], [120.55208333333333, 33.155], [120.55208333333333, 33.15], [120.5475, 33.15], [120.5475, 33.155]], [[120.59791666666666, 33.155], [120.6025, 33.155], [120.6025, 33.15], [120.59791666666666, 33.15], [120.59791666666666, 33.155]], [[120.60708333333334, 33.155], [120.61166666666666, 33.155], [120.61166666666666, 33.144999999999996], [120.60708333333334, 33.144999999999996], [120.60708333333334, 33.155]], [[120.84083333333334, 33.155], [120.84541666666667, 33.155], [120.84541666666667, 33.15], [120.84083333333334, 33.15], [120.84083333333334, 33.155]], [[120.88666666666667, 33.155], [120.89125, 33.155], [120.89125, 33.15], [120.88666666666667, 33.15], [120.88666666666667, 33.155]], [[120.9325, 33.15], [120.93708333333333, 33.15], [120.93708333333333, 33.144999999999996], [120.9325, 33.144999999999996], [120.9325, 33.15]], [[121.015, 33.15], [121.01958333333333, 33.15], [121.01958333333333, 33.144999999999996], [121.015, 33.144999999999996], [121.015, 33.15]], [[120.52458333333333, 33.144999999999996], [120.52916666666667, 33.144999999999996], [120.52916666666667, 33.14], [120.52458333333333, 33.14], [120.52458333333333, 33.144999999999996]], [[120.5475, 33.144999999999996], [120.55208333333333, 33.144999999999996], [120.55208333333333, 33.14], [120.5475, 33.14], [120.5475, 33.144999999999996]], [[120.68041666666667, 33.144999999999996], [120.68958333333333, 33.144999999999996], [120.68958333333333, 33.14], [120.68041666666667, 33.14], [120.68041666666667, 33.144999999999996]], [[120.92791666666668, 33.144999999999996], [120.9325, 33.144999999999996], [120.9325, 33.14], [120.92791666666668, 33.14], [120.92791666666668, 33.144999999999996]], [[121.12958333333334, 33.144999999999996], [121.13416666666667, 33.144999999999996], [121.13416666666667, 33.14], [121.12958333333334, 33.14], [121.12958333333334, 33.144999999999996]], [[120.51541666666667, 33.14], [120.52, 33.14], [120.52, 33.135], [120.51541666666667, 33.135], [120.51541666666667, 33.14]], [[120.65291666666667, 33.14], [120.6575, 33.14], [120.6575, 33.135], [120.65291666666667, 33.135], [120.65291666666667, 33.14]], [[120.69416666666666, 33.14], [120.69875, 33.14], [120.69875, 33.135], [120.69416666666666, 33.135], [120.69416666666666, 33.14]], [[120.70791666666666, 33.14], [120.7125, 33.14], [120.7125, 33.135], [120.70791666666666, 33.135], [120.70791666666666, 33.14]], [[120.74916666666667, 33.14], [120.75375, 33.14], [120.75375, 33.135], [120.74916666666667, 33.135], [120.74916666666667, 33.14]], [[120.81791666666666, 33.14], [120.8225, 33.14], [120.8225, 33.135], [120.81791666666666, 33.135], [120.81791666666666, 33.14]], [[120.85, 33.14], [120.85458333333334, 33.14], [120.85458333333334, 33.135], [120.85, 33.135], [120.85, 33.14]], [[120.905, 33.14], [120.90958333333333, 33.14], [120.90958333333333, 33.135], [120.905, 33.135], [120.905, 33.14]], [[120.95541666666666, 33.14], [120.96000000000001, 33.14], [120.96000000000001, 33.135], [120.95541666666666, 33.135], [120.95541666666666, 33.14]], [[121.02416666666667, 33.14], [121.02875, 33.14], [121.02875, 33.135], [121.02416666666667, 33.135], [121.02416666666667, 33.14]], [[121.05166666666668, 33.14], [121.05625, 33.14], [121.05625, 33.135], [121.05166666666668, 33.135], [121.05166666666668, 33.14]], [[120.56125, 33.135], [120.56583333333333, 33.135], [120.56583333333333, 33.13], [120.56125, 33.13], [120.56125, 33.135]], [[120.64833333333333, 33.135], [120.65291666666667, 33.135], [120.65291666666667, 33.13], [120.64833333333333, 33.13], [120.64833333333333, 33.135]], [[120.73541666666667, 33.135], [120.74, 33.135], [120.74, 33.125], [120.73541666666667, 33.125], [120.73541666666667, 33.135]], [[120.78125, 33.135], [120.78583333333333, 33.135], [120.78583333333333, 33.13], [120.78125, 33.13], [120.78125, 33.135]], [[120.795, 33.135], [120.79958333333333, 33.135], [120.79958333333333, 33.13], [120.795, 33.13], [120.795, 33.135]], [[120.85916666666667, 33.135], [120.86375, 33.135], [120.86375, 33.13], [120.85916666666667, 33.13], [120.85916666666667, 33.135]], [[120.52458333333333, 33.13], [120.52916666666667, 33.13], [120.52916666666667, 33.125], [120.52458333333333, 33.125], [120.52458333333333, 33.13]], [[120.67125, 33.13], [120.67583333333333, 33.13], [120.67583333333333, 33.125], [120.67125, 33.125], [120.67125, 33.13]], [[120.80875, 33.13], [120.81333333333333, 33.13], [120.81333333333333, 33.125], [120.80875, 33.125], [120.80875, 33.13]], [[120.85458333333334, 33.13], [120.85916666666667, 33.13], [120.85916666666667, 33.125], [120.85458333333334, 33.125], [120.85458333333334, 33.13]], [[121.07916666666667, 33.13], [121.08375000000001, 33.13], [121.08375000000001, 33.125], [121.07916666666667, 33.125], [121.07916666666667, 33.13]], [[121.10666666666667, 33.13], [121.11125, 33.13], [121.11125, 33.125], [121.10666666666667, 33.125], [121.10666666666667, 33.13]], [[121.17541666666668, 33.13], [121.18458333333334, 33.13], [121.18458333333334, 33.125], [121.17541666666668, 33.125], [121.17541666666668, 33.13]], [[121.19375000000001, 33.13], [121.19833333333334, 33.13], [121.19833333333334, 33.125], [121.19375000000001, 33.125], [121.19375000000001, 33.13]], [[120.49249999999999, 33.125], [120.49708333333334, 33.125], [120.49708333333334, 33.12], [120.49249999999999, 33.12], [120.49249999999999, 33.125]], [[120.69416666666666, 33.125], [120.69875, 33.125], [120.69875, 33.12], [120.69416666666666, 33.12], [120.69416666666666, 33.125]], [[120.94625, 33.125], [120.95083333333334, 33.125], [120.95083333333334, 33.12], [120.94625, 33.12], [120.94625, 33.125]], [[121.12958333333334, 33.125], [121.13416666666667, 33.125], [121.13416666666667, 33.12], [121.12958333333334, 33.12], [121.12958333333334, 33.125]], [[120.60708333333334, 33.12], [120.61166666666666, 33.12], [120.61166666666666, 33.115], [120.60708333333334, 33.115], [120.60708333333334, 33.12]], [[120.75833333333334, 33.12], [120.76291666666667, 33.12], [120.76291666666667, 33.115], [120.75833333333334, 33.115], [120.75833333333334, 33.12]], [[120.77666666666667, 33.12], [120.78125, 33.12], [120.78125, 33.115], [120.77666666666667, 33.115], [120.77666666666667, 33.12]], [[120.82708333333333, 33.12], [120.83166666666666, 33.12], [120.83166666666666, 33.11], [120.82708333333333, 33.11], [120.82708333333333, 33.12]], [[120.89583333333333, 33.12], [120.90041666666667, 33.12], [120.90041666666667, 33.115], [120.89583333333333, 33.115], [120.89583333333333, 33.12]], [[120.91875, 33.12], [120.92333333333333, 33.12], [120.92333333333333, 33.115], [120.91875, 33.115], [120.91875, 33.12]], [[120.96000000000001, 33.12], [120.96458333333334, 33.12], [120.96458333333334, 33.115], [120.96000000000001, 33.115], [120.96000000000001, 33.12]], [[121.0975, 33.12], [121.10208333333334, 33.12], [121.10208333333334, 33.115], [121.0975, 33.115], [121.0975, 33.12]], [[120.56583333333333, 33.115], [120.57041666666666, 33.115], [120.57041666666666, 33.11], [120.56583333333333, 33.11], [120.56583333333333, 33.115]], [[120.63916666666667, 33.115], [120.64375, 33.115], [120.64375, 33.11], [120.63916666666667, 33.11], [120.63916666666667, 33.115]], [[120.96458333333334, 33.115], [120.96916666666667, 33.115], [120.96916666666667, 33.11], [120.96458333333334, 33.11], [120.96458333333334, 33.115]], [[121.01958333333333, 33.115], [121.02416666666667, 33.115], [121.02416666666667, 33.11], [121.01958333333333, 33.11], [121.01958333333333, 33.115]], [[121.07458333333334, 33.115], [121.07916666666667, 33.115], [121.07916666666667, 33.11], [121.07458333333334, 33.11], [121.07458333333334, 33.115]], [[121.10208333333334, 33.115], [121.10666666666667, 33.115], [121.10666666666667, 33.11], [121.10208333333334, 33.11], [121.10208333333334, 33.115]], [[121.17083333333333, 33.115], [121.17541666666668, 33.115], [121.17541666666668, 33.11], [121.17083333333333, 33.11], [121.17083333333333, 33.115]], [[120.86375, 33.11], [120.86833333333334, 33.11], [120.86833333333334, 33.105], [120.87291666666667, 33.105], [120.87291666666667, 33.1], [120.86375, 33.1], [120.86375, 33.11]], [[120.95083333333334, 33.11], [120.95541666666666, 33.11], [120.95541666666666, 33.105], [120.95083333333334, 33.105], [120.95083333333334, 33.11]], [[121.05166666666668, 33.11], [121.05625, 33.11], [121.05625, 33.105], [121.05166666666668, 33.105], [121.05166666666668, 33.11]], [[120.46958333333333, 33.105], [120.47416666666666, 33.105], [120.47416666666666, 33.1], [120.46958333333333, 33.1], [120.46958333333333, 33.105]], [[120.92333333333333, 33.105], [120.92791666666668, 33.105], [120.92791666666668, 33.1], [120.92333333333333, 33.1], [120.92333333333333, 33.105]], [[121.0425, 33.105], [121.04708333333333, 33.105], [121.04708333333333, 33.1], [121.0425, 33.1], [121.0425, 33.105]], [[121.09291666666667, 33.105], [121.0975, 33.105], [121.0975, 33.1], [121.09291666666667, 33.1], [121.09291666666667, 33.105]], [[121.10208333333334, 33.105], [121.10666666666667, 33.105], [121.10666666666667, 33.1], [121.10208333333334, 33.1], [121.10208333333334, 33.105]], [[120.62541666666667, 33.1], [120.63, 33.1], [120.63, 33.095], [120.62541666666667, 33.095], [120.62541666666667, 33.1]], [[120.82708333333333, 33.1], [120.83166666666666, 33.1], [120.83166666666666, 33.095], [120.82708333333333, 33.095], [120.82708333333333, 33.1]], [[121.02416666666667, 33.1], [121.02875, 33.1], [121.02875, 33.095], [121.02416666666667, 33.095], [121.02416666666667, 33.1]], [[121.08375000000001, 33.1], [121.08833333333334, 33.1], [121.08833333333334, 33.095], [121.08375000000001, 33.095], [121.08375000000001, 33.1]], [[120.57041666666666, 33.095], [120.575, 33.095], [120.575, 33.089999999999996], [120.57041666666666, 33.089999999999996], [120.57041666666666, 33.095]], [[120.64375, 33.095], [120.64833333333333, 33.095], [120.64833333333333, 33.089999999999996], [120.64375, 33.089999999999996], [120.64375, 33.095]], [[120.84083333333334, 33.095], [120.84541666666667, 33.095], [120.84541666666667, 33.089999999999996], [120.84083333333334, 33.089999999999996], [120.84083333333334, 33.095]], [[120.87291666666667, 33.095], [120.8775, 33.095], [120.8775, 33.089999999999996], [120.87291666666667, 33.089999999999996], [120.87291666666667, 33.095]], [[120.94625, 33.095], [120.95083333333334, 33.095], [120.95083333333334, 33.089999999999996], [120.94625, 33.089999999999996], [120.94625, 33.095]], [[120.96458333333334, 33.095], [120.96916666666667, 33.095], [120.96916666666667, 33.089999999999996], [120.96458333333334, 33.089999999999996], [120.96458333333334, 33.095]], [[121.05166666666668, 33.095], [121.05625, 33.095], [121.05625, 33.089999999999996], [121.05166666666668, 33.089999999999996], [121.05166666666668, 33.095]], [[121.235, 33.089999999999996], [121.23958333333334, 33.089999999999996], [121.23958333333334, 33.085], [121.235, 33.085], [121.235, 33.089999999999996]], [[120.57041666666666, 33.085], [120.575, 33.085], [120.575, 33.08], [120.57041666666666, 33.08], [120.57041666666666, 33.085]], [[120.64833333333333, 33.085], [120.65291666666667, 33.085], [120.65291666666667, 33.08], [120.64833333333333, 33.08], [120.64833333333333, 33.085]], [[120.68958333333333, 33.085], [120.69416666666666, 33.085], [120.69416666666666, 33.08], [120.68958333333333, 33.08], [120.68958333333333, 33.085]], [[120.9325, 33.085], [120.93708333333333, 33.085], [120.93708333333333, 33.08], [120.9325, 33.08], [120.9325, 33.085]], [[120.94166666666666, 33.085], [120.94625, 33.085], [120.94625, 33.08], [120.94166666666666, 33.08], [120.94166666666666, 33.085]], [[121.04708333333333, 33.085], [121.05166666666668, 33.085], [121.05166666666668, 33.08], [121.04708333333333, 33.08], [121.04708333333333, 33.085]], [[121.11583333333334, 33.085], [121.12041666666667, 33.085], [121.12041666666667, 33.08], [121.11583333333334, 33.08], [121.11583333333334, 33.085]], [[121.14791666666667, 33.085], [121.1525, 33.085], [121.1525, 33.08], [121.14791666666667, 33.08], [121.14791666666667, 33.085]], [[120.47875, 33.08], [120.48333333333333, 33.08], [120.48333333333333, 33.075], [120.47875, 33.075], [120.47875, 33.08]], [[120.53833333333333, 33.08], [120.54291666666667, 33.08], [120.54291666666667, 33.075], [120.53833333333333, 33.075], [120.53833333333333, 33.08]], [[121.02875, 33.08], [121.03333333333333, 33.08], [121.03333333333333, 33.075], [121.02875, 33.075], [121.02875, 33.08]], [[121.07458333333334, 33.08], [121.07916666666667, 33.08], [121.07916666666667, 33.075], [121.07458333333334, 33.075], [121.07458333333334, 33.08]], [[121.12958333333334, 33.08], [121.13416666666667, 33.08], [121.13416666666667, 33.075], [121.12958333333334, 33.075], [121.12958333333334, 33.08]], [[120.5475, 33.075], [120.55208333333333, 33.075], [120.55208333333333, 33.07], [120.5475, 33.07], [120.5475, 33.075]], [[120.69416666666666, 33.075], [120.69875, 33.075], [120.69875, 33.07], [120.69416666666666, 33.07], [120.69416666666666, 33.075]], [[120.75833333333334, 33.075], [120.76291666666667, 33.075], [120.76291666666667, 33.07], [120.75833333333334, 33.07], [120.75833333333334, 33.075]], [[120.8225, 33.075], [120.82708333333333, 33.075], [120.82708333333333, 33.07], [120.8225, 33.07], [120.8225, 33.075]], [[120.94625, 33.075], [120.95083333333334, 33.075], [120.95083333333334, 33.07], [120.94625, 33.07], [120.94625, 33.075]], [[121.0425, 33.075], [121.04708333333333, 33.075], [121.04708333333333, 33.07], [121.0425, 33.07], [121.0425, 33.075]], [[121.16625, 33.075], [121.17083333333333, 33.075], [121.17083333333333, 33.07], [121.16625, 33.07], [121.16625, 33.075]], [[121.18458333333334, 33.075], [121.18916666666667, 33.075], [121.18916666666667, 33.07], [121.18458333333334, 33.07], [121.18458333333334, 33.075]], [[121.22583333333334, 33.075], [121.23041666666667, 33.075], [121.23041666666667, 33.07], [121.22583333333334, 33.07], [121.22583333333334, 33.075]], [[121.23958333333334, 33.075], [121.24416666666667, 33.075], [121.24416666666667, 33.07], [121.23958333333334, 33.07], [121.23958333333334, 33.075]], [[120.51541666666667, 33.07], [120.52, 33.07], [120.52, 33.065], [120.51541666666667, 33.065], [120.51541666666667, 33.07]], [[120.52916666666667, 33.07], [120.53375, 33.07], [120.53375, 33.065], [120.52916666666667, 33.065], [120.52916666666667, 33.07]], [[120.58416666666666, 33.07], [120.58875, 33.07], [120.58875, 33.06], [120.58416666666666, 33.06], [120.58416666666666, 33.07]], [[120.69875, 33.07], [120.70791666666666, 33.07], [120.70791666666666, 33.065], [120.70333333333333, 33.065], [120.70333333333333, 33.06], [120.69875, 33.06], [120.69875, 33.07]], [[120.77666666666667, 33.07], [120.78125, 33.07], [120.78125, 33.065], [120.77666666666667, 33.065], [120.77666666666667, 33.07]], [[121.00583333333334, 33.07], [121.01041666666667, 33.07], [121.01041666666667, 33.065], [121.00583333333334, 33.065], [121.00583333333334, 33.07]], [[121.21666666666667, 33.07], [121.22125, 33.07], [121.22125, 33.06], [121.21208333333334, 33.06], [121.21208333333334, 33.065], [121.21666666666667, 33.065], [121.21666666666667, 33.07]], [[120.53375, 33.065], [120.53833333333333, 33.065], [120.53833333333333, 33.06], [120.53375, 33.06], [120.53375, 33.065]], [[120.73083333333334, 33.065], [120.73541666666667, 33.065], [120.73541666666667, 33.06], [120.73083333333334, 33.06], [120.73083333333334, 33.065]], [[120.74, 33.065], [120.74458333333334, 33.065], [120.74458333333334, 33.06], [120.74, 33.06], [120.74, 33.065]], [[121.10666666666667, 33.065], [121.11125, 33.065], [121.11125, 33.06], [121.10666666666667, 33.06], [121.10666666666667, 33.065]], [[120.57041666666666, 33.06], [120.58416666666666, 33.06], [120.58416666666666, 33.055], [120.57041666666666, 33.055], [120.57041666666666, 33.06]], [[120.87291666666667, 33.06], [120.8775, 33.06], [120.8775, 33.055], [120.87291666666667, 33.055], [120.87291666666667, 33.06]], [[120.91875, 33.06], [120.92333333333333, 33.06], [120.92333333333333, 33.05], [120.91875, 33.05], [120.91875, 33.06]], [[121.02875, 33.06], [121.03333333333333, 33.06], [121.03333333333333, 33.055], [121.02875, 33.055], [121.02875, 33.06]], [[120.44666666666666, 33.055], [120.45125, 33.055], [120.45125, 33.05], [120.44666666666666, 33.05], [120.44666666666666, 33.055]], [[120.48333333333333, 33.055], [120.48791666666666, 33.055], [120.48791666666666, 33.05], [120.48333333333333, 33.05], [120.48333333333333, 33.055]], [[120.63458333333334, 33.055], [120.63916666666667, 33.055], [120.63916666666667, 33.05], [120.63458333333334, 33.05], [120.63458333333334, 33.055]], [[120.74916666666667, 33.055], [120.75375, 33.055], [120.75375, 33.05], [120.74916666666667, 33.05], [120.74916666666667, 33.055]], [[120.78125, 33.055], [120.78583333333333, 33.055], [120.78583333333333, 33.05], [120.78125, 33.05], [120.78125, 33.055]], [[120.8225, 33.055], [120.82708333333333, 33.055], [120.82708333333333, 33.05], [120.8225, 33.05], [120.8225, 33.055]], [[120.89125, 33.055], [120.89583333333333, 33.055], [120.89583333333333, 33.05], [120.89125, 33.05], [120.89125, 33.055]], [[121.00125, 33.055], [121.00583333333334, 33.055], [121.00583333333334, 33.05], [121.00125, 33.05], [121.00125, 33.055]], [[121.01958333333333, 33.055], [121.02416666666667, 33.055], [121.02416666666667, 33.05], [121.01958333333333, 33.05], [121.01958333333333, 33.055]], [[121.03791666666667, 33.055], [121.0425, 33.055], [121.0425, 33.05], [121.03791666666667, 33.05], [121.03791666666667, 33.055]], [[121.05166666666668, 33.055], [121.05625, 33.055], [121.05625, 33.05], [121.05166666666668, 33.05], [121.05166666666668, 33.055]], [[120.58416666666666, 33.05], [120.58875, 33.05], [120.58875, 33.045], [120.58416666666666, 33.045], [120.58416666666666, 33.05]], [[120.70333333333333, 33.05], [120.70791666666666, 33.05], [120.70791666666666, 33.045], [120.70333333333333, 33.045], [120.70333333333333, 33.05]], [[120.795, 33.05], [120.79958333333333, 33.05], [120.79958333333333, 33.045], [120.795, 33.045], [120.795, 33.05]], [[120.81333333333333, 33.05], [120.81791666666666, 33.05], [120.81791666666666, 33.045], [120.81333333333333, 33.045], [120.81333333333333, 33.05]], [[121.07458333333334, 33.05], [121.07916666666667, 33.05], [121.07916666666667, 33.045], [121.07458333333334, 33.045], [121.07458333333334, 33.05]], [[121.10666666666667, 33.05], [121.11125, 33.05], [121.11125, 33.045], [121.10666666666667, 33.045], [121.10666666666667, 33.05]], [[121.15708333333333, 33.05], [121.16166666666668, 33.05], [121.16166666666668, 33.045], [121.15708333333333, 33.045], [121.15708333333333, 33.05]], [[121.19833333333334, 33.05], [121.20291666666667, 33.05], [121.20291666666667, 33.045], [121.19833333333334, 33.045], [121.19833333333334, 33.05]], [[120.72625000000001, 33.045], [120.73083333333334, 33.045], [120.73083333333334, 33.04], [120.72625000000001, 33.04], [120.72625000000001, 33.045]], [[120.84083333333334, 33.045], [120.84541666666667, 33.045], [120.84541666666667, 33.04], [120.84083333333334, 33.04], [120.84083333333334, 33.045]], [[120.85916666666667, 33.045], [120.86375, 33.045], [120.86375, 33.04], [120.85916666666667, 33.04], [120.85916666666667, 33.045]], [[120.86833333333334, 33.045], [120.87291666666667, 33.045], [120.87291666666667, 33.04], [120.86833333333334, 33.04], [120.86833333333334, 33.045]], [[121.07916666666667, 33.045], [121.08375000000001, 33.045], [121.08375000000001, 33.04], [121.07916666666667, 33.04], [121.07916666666667, 33.045]], [[121.21666666666667, 33.045], [121.22125, 33.045], [121.22125, 33.04], [121.21666666666667, 33.04], [121.21666666666667, 33.045]], [[120.50166666666667, 33.04], [120.50625, 33.04], [120.50625, 33.035], [120.50166666666667, 33.035], [120.50166666666667, 33.04]], [[120.62541666666667, 33.04], [120.63, 33.04], [120.63, 33.035], [120.62541666666667, 33.035], [120.62541666666667, 33.04]], [[120.68958333333333, 33.04], [120.69416666666666, 33.04], [120.69416666666666, 33.035], [120.68958333333333, 33.035], [120.68958333333333, 33.04]], [[120.87291666666667, 33.04], [120.8775, 33.04], [120.8775, 33.035], [120.87291666666667, 33.035], [120.87291666666667, 33.04]], [[120.96458333333334, 33.04], [120.96916666666667, 33.04], [120.96916666666667, 33.025], [120.96458333333334, 33.025], [120.96458333333334, 33.04]], [[121.09291666666667, 33.04], [121.0975, 33.04], [121.0975, 33.035], [121.09291666666667, 33.035], [121.09291666666667, 33.04]], [[121.22583333333334, 33.04], [121.23041666666667, 33.04], [121.23041666666667, 33.035], [121.22583333333334, 33.035], [121.22583333333334, 33.04]], [[120.55666666666667, 33.035], [120.56125, 33.035], [120.56125, 33.03], [120.55666666666667, 33.03], [120.55666666666667, 33.035]], [[120.59333333333333, 33.035], [120.59791666666666, 33.035], [120.59791666666666, 33.03], [120.59333333333333, 33.03], [120.59333333333333, 33.035]], [[120.65291666666667, 33.035], [120.6575, 33.035], [120.6575, 33.03], [120.65291666666667, 33.03], [120.65291666666667, 33.035]], [[120.74, 33.035], [120.74458333333334, 33.035], [120.74458333333334, 33.03], [120.74, 33.03], [120.74, 33.035]], [[121.02875, 33.035], [121.03333333333333, 33.035], [121.03333333333333, 33.03], [121.02875, 33.03], [121.02875, 33.035]], [[121.14791666666667, 33.035], [121.1525, 33.035], [121.1525, 33.03], [121.14791666666667, 33.03], [121.14791666666667, 33.035]], [[121.23958333333334, 33.035], [121.24416666666667, 33.035], [121.24416666666667, 33.03], [121.23958333333334, 33.03], [121.23958333333334, 33.035]], [[121.25333333333334, 33.035], [121.25791666666667, 33.035], [121.25791666666667, 33.03], [121.25333333333334, 33.03], [121.25333333333334, 33.035]], [[120.47416666666666, 33.03], [120.47875, 33.03], [120.47875, 33.025], [120.47416666666666, 33.025], [120.47416666666666, 33.03]], [[120.51541666666667, 33.03], [120.52, 33.03], [120.52, 33.025], [120.51541666666667, 33.025], [120.51541666666667, 33.03]], [[120.54291666666667, 33.03], [120.5475, 33.03], [120.5475, 33.025], [120.54291666666667, 33.025], [120.54291666666667, 33.03]], [[120.63, 33.03], [120.63458333333334, 33.03], [120.63458333333334, 33.025], [120.63, 33.025], [120.63, 33.03]], [[120.6575, 33.03], [120.66208333333333, 33.03], [120.66208333333333, 33.025], [120.6575, 33.025], [120.6575, 33.03]], [[120.78125, 33.03], [120.78583333333333, 33.03], [120.78583333333333, 33.025], [120.78125, 33.025], [120.78125, 33.03]], [[120.82708333333333, 33.03], [120.83166666666666, 33.03], [120.83166666666666, 33.025], [120.82708333333333, 33.025], [120.82708333333333, 33.03]], [[120.90041666666667, 33.03], [120.905, 33.03], [120.905, 33.025], [120.90041666666667, 33.025], [120.90041666666667, 33.03]], [[120.93708333333333, 33.03], [120.94625, 33.03], [120.94625, 33.025], [120.93708333333333, 33.025], [120.93708333333333, 33.03]], [[120.99208333333334, 33.03], [120.99666666666667, 33.03], [120.99666666666667, 33.025], [120.99208333333334, 33.025], [120.99208333333334, 33.03]], [[121.11125, 33.03], [121.11583333333334, 33.03], [121.11583333333334, 33.025], [121.11125, 33.025], [121.11125, 33.03]], [[120.69416666666666, 33.025], [120.69875, 33.025], [120.69875, 33.02], [120.69416666666666, 33.02], [120.69416666666666, 33.025]], [[120.7125, 33.025], [120.71708333333333, 33.025], [120.71708333333333, 33.02], [120.7125, 33.02], [120.7125, 33.025]], [[120.83625, 33.025], [120.84083333333334, 33.025], [120.84083333333334, 33.02], [120.83625, 33.02], [120.83625, 33.025]], [[121.015, 33.025], [121.01958333333333, 33.025], [121.01958333333333, 33.015], [121.015, 33.015], [121.015, 33.025]], [[121.15708333333333, 33.025], [121.16166666666668, 33.025], [121.16166666666668, 33.02], [121.15708333333333, 33.02], [121.15708333333333, 33.025]], [[120.55666666666667, 33.02], [120.56125, 33.02], [120.56125, 33.015], [120.55666666666667, 33.015], [120.55666666666667, 33.02]], [[120.84541666666667, 33.02], [120.85, 33.02], [120.85, 33.01], [120.84541666666667, 33.01], [120.84541666666667, 33.02]], [[121.13875, 33.02], [121.14333333333333, 33.02], [121.14333333333333, 33.015], [121.13875, 33.015], [121.13875, 33.02]], [[120.48333333333333, 33.015], [120.48791666666666, 33.015], [120.48791666666666, 33.01], [120.48333333333333, 33.01], [120.48333333333333, 33.015]], [[120.51541666666667, 33.015], [120.52, 33.015], [120.52, 33.01], [120.51541666666667, 33.01], [120.51541666666667, 33.015]], [[120.78583333333333, 33.015], [120.79041666666667, 33.015], [120.79041666666667, 33.01], [120.78583333333333, 33.01], [120.78583333333333, 33.015]], [[120.88666666666667, 33.015], [120.89125, 33.015], [120.89125, 33.01], [120.88666666666667, 33.01], [120.88666666666667, 33.015]], [[120.9325, 33.015], [120.93708333333333, 33.015], [120.93708333333333, 33.01], [120.9325, 33.01], [120.9325, 33.015]], [[120.95083333333334, 33.015], [120.95541666666666, 33.015], [120.95541666666666, 33.005], [120.95083333333334, 33.005], [120.95083333333334, 33.015]], [[121.07458333333334, 33.015], [121.08375000000001, 33.015], [121.08375000000001, 33.01], [121.07458333333334, 33.01], [121.07458333333334, 33.015]], [[121.11125, 33.015], [121.11583333333334, 33.015], [121.11583333333334, 33.005], [121.11125, 33.005], [121.11125, 33.015]], [[120.45125, 33.01], [120.45583333333333, 33.01], [120.45583333333333, 33.005], [120.45125, 33.005], [120.45125, 33.01]], [[120.50166666666667, 33.01], [120.50625, 33.01], [120.50625, 33.005], [120.50166666666667, 33.005], [120.50166666666667, 33.01]], [[120.685, 33.01], [120.68958333333333, 33.01], [120.68958333333333, 33.005], [120.685, 33.005], [120.685, 33.01]], [[120.69416666666666, 33.01], [120.69875, 33.01], [120.69875, 33.005], [120.69416666666666, 33.005], [120.69416666666666, 33.01]], [[120.96458333333334, 33.01], [120.96916666666667, 33.01], [120.96916666666667, 33.005], [120.96458333333334, 33.005], [120.96458333333334, 33.01]], [[121.05166666666668, 33.01], [121.05625, 33.01], [121.05625, 33.005], [121.05166666666668, 33.005], [121.05166666666668, 33.01]], [[121.14333333333333, 33.01], [121.14791666666667, 33.01], [121.14791666666667, 33.005], [121.14333333333333, 33.005], [121.14333333333333, 33.01]], [[120.68958333333333, 33.005], [120.69416666666666, 33.005], [120.69416666666666, 33.0], [120.68958333333333, 33.0], [120.68958333333333, 33.005]], [[120.70791666666666, 33.005], [120.7125, 33.005], [120.7125, 33.0], [120.70791666666666, 33.0], [120.70791666666666, 33.005]], [[120.74, 33.005], [120.74458333333334, 33.005], [120.74458333333334, 33.0], [120.74, 33.0], [120.74, 33.005]], [[121.02416666666667, 33.005], [121.02875, 33.005], [121.02875, 33.0], [121.02416666666667, 33.0], [121.02416666666667, 33.005]], [[121.07916666666667, 33.005], [121.08375000000001, 33.005], [121.08375000000001, 33.0], [121.07916666666667, 33.0], [121.07916666666667, 33.005]], [[121.17083333333333, 33.005], [121.17541666666668, 33.005], [121.17541666666668, 33.0], [121.17083333333333, 33.0], [121.17083333333333, 33.005]], [[121.19833333333334, 33.005], [121.20291666666667, 33.005], [121.20291666666667, 33.0], [121.19833333333334, 33.0], [121.19833333333334, 33.005]], [[121.25791666666667, 33.005], [121.26708333333333, 33.005], [121.26708333333333, 33.0], [121.25791666666667, 33.0], [121.25791666666667, 33.005]], [[120.62083333333334, 33.0], [120.62541666666667, 33.0], [120.62541666666667, 32.995], [120.62083333333334, 32.995], [120.62083333333334, 33.0]], [[120.71708333333333, 33.0], [120.72166666666666, 33.0], [120.72166666666666, 32.995], [120.71708333333333, 32.995], [120.71708333333333, 33.0]], [[120.76291666666667, 33.0], [120.7675, 33.0], [120.7675, 32.995], [120.76291666666667, 32.995], [120.76291666666667, 33.0]], [[120.80875, 33.0], [120.81333333333333, 33.0], [120.81333333333333, 32.995], [120.80875, 32.995], [120.80875, 33.0]], [[120.86833333333334, 33.0], [120.87291666666667, 33.0], [120.87291666666667, 32.995], [120.86833333333334, 32.995], [120.86833333333334, 33.0]], [[121.11125, 33.0], [121.11583333333334, 33.0], [121.11583333333334, 32.995], [121.11125, 32.995], [121.11125, 33.0]], [[120.63, 32.995], [120.63458333333334, 32.995], [120.63458333333334, 32.99], [120.63, 32.99], [120.63, 32.995]], [[120.69416666666666, 32.995], [120.69875, 32.995], [120.69875, 32.99], [120.69416666666666, 32.99], [120.69416666666666, 32.995]], [[120.70791666666666, 32.995], [120.71708333333333, 32.995], [120.71708333333333, 32.99], [120.70791666666666, 32.99], [120.70791666666666, 32.995]], [[120.88208333333334, 32.995], [120.88666666666667, 32.995], [120.88666666666667, 32.99], [120.88208333333334, 32.99], [120.88208333333334, 32.995]], [[120.94166666666666, 32.995], [120.94625, 32.995], [120.94625, 32.99], [120.94166666666666, 32.99], [120.94166666666666, 32.995]], [[120.99666666666667, 32.995], [121.00125, 32.995], [121.00125, 32.99], [120.99666666666667, 32.99], [120.99666666666667, 32.995]], [[121.03791666666667, 32.995], [121.0425, 32.995], [121.0425, 32.99], [121.03791666666667, 32.99], [121.03791666666667, 32.995]], [[121.13875, 32.995], [121.14333333333333, 32.995], [121.14333333333333, 32.99], [121.13875, 32.99], [121.13875, 32.995]], [[121.24416666666667, 32.995], [121.25333333333334, 32.995], [121.25333333333334, 32.99], [121.24416666666667, 32.99], [121.24416666666667, 32.995]], [[120.61625, 32.99], [120.62083333333334, 32.99], [120.62083333333334, 32.985], [120.61625, 32.985], [120.61625, 32.99]], [[120.97833333333334, 32.99], [120.98291666666667, 32.99], [120.98291666666667, 32.985], [120.97833333333334, 32.985], [120.97833333333334, 32.99]], [[120.99208333333334, 32.99], [120.99666666666667, 32.99], [120.99666666666667, 32.985], [120.99208333333334, 32.985], [120.99208333333334, 32.99]], [[121.12958333333334, 32.99], [121.13416666666667, 32.99], [121.13416666666667, 32.985], [121.12958333333334, 32.985], [121.12958333333334, 32.99]], [[120.50166666666667, 32.985], [120.50625, 32.985], [120.50625, 32.98], [120.50166666666667, 32.98], [120.50166666666667, 32.985]], [[120.51083333333334, 32.985], [120.51541666666667, 32.985], [120.51541666666667, 32.98], [120.51083333333334, 32.98], [120.51083333333334, 32.985]], [[120.575, 32.985], [120.57958333333333, 32.985], [120.57958333333333, 32.98], [120.575, 32.98], [120.575, 32.985]], [[120.59333333333333, 32.985], [120.59791666666666, 32.985], [120.59791666666666, 32.98], [120.59333333333333, 32.98], [120.59333333333333, 32.985]], [[120.67583333333333, 32.985], [120.68041666666667, 32.985], [120.68041666666667, 32.98], [120.67583333333333, 32.98], [120.67583333333333, 32.985]], [[120.74, 32.985], [120.74458333333334, 32.985], [120.74458333333334, 32.98], [120.74, 32.98], [120.74, 32.985]], [[120.905, 32.985], [120.90958333333333, 32.985], [120.90958333333333, 32.98], [120.905, 32.98], [120.905, 32.985]], [[120.9875, 32.985], [120.99208333333334, 32.985], [120.99208333333334, 32.975], [120.9875, 32.975], [120.9875, 32.985]], [[121.00125, 32.985], [121.00583333333334, 32.985], [121.00583333333334, 32.98], [121.00125, 32.98], [121.00125, 32.985]], [[121.05625, 32.985], [121.06083333333333, 32.985], [121.06083333333333, 32.98], [121.05625, 32.98], [121.05625, 32.985]], [[121.10208333333334, 32.985], [121.10666666666667, 32.985], [121.10666666666667, 32.98], [121.10208333333334, 32.98], [121.10208333333334, 32.985]], [[121.14333333333333, 32.985], [121.14791666666667, 32.985], [121.14791666666667, 32.98], [121.14333333333333, 32.98], [121.14333333333333, 32.985]], [[121.20291666666667, 32.985], [121.20750000000001, 32.985], [121.20750000000001, 32.98], [121.20291666666667, 32.98], [121.20291666666667, 32.985]], [[120.55208333333333, 32.98], [120.55666666666667, 32.98], [120.55666666666667, 32.975], [120.55208333333333, 32.975], [120.55208333333333, 32.98]], [[120.67125, 32.98], [120.67583333333333, 32.98], [120.67583333333333, 32.975], [120.67125, 32.975], [120.67125, 32.98]], [[120.78583333333333, 32.98], [120.79041666666667, 32.98], [120.79041666666667, 32.975], [120.78583333333333, 32.975], [120.78583333333333, 32.98]], [[120.8225, 32.98], [120.82708333333333, 32.98], [120.82708333333333, 32.975], [120.8225, 32.975], [120.8225, 32.98]], [[120.84083333333334, 32.98], [120.84541666666667, 32.98], [120.84541666666667, 32.975], [120.84083333333334, 32.975], [120.84083333333334, 32.98]], [[120.87291666666667, 32.98], [120.8775, 32.98], [120.8775, 32.975], [120.87291666666667, 32.975], [120.87291666666667, 32.98]], [[120.90041666666667, 32.98], [120.905, 32.98], [120.905, 32.975], [120.90041666666667, 32.975], [120.90041666666667, 32.98]], [[120.9325, 32.98], [120.93708333333333, 32.98], [120.93708333333333, 32.975], [120.9325, 32.975], [120.9325, 32.98]], [[121.09291666666667, 32.98], [121.0975, 32.98], [121.0975, 32.975], [121.09291666666667, 32.975], [121.09291666666667, 32.98]], [[121.18458333333334, 32.98], [121.18916666666667, 32.98], [121.18916666666667, 32.975], [121.18458333333334, 32.975], [121.18458333333334, 32.98]], [[121.20750000000001, 32.98], [121.21208333333334, 32.98], [121.21208333333334, 32.975], [121.20750000000001, 32.975], [121.20750000000001, 32.98]], [[120.51541666666667, 32.975], [120.52, 32.975], [120.52, 32.97], [120.51541666666667, 32.97], [120.51541666666667, 32.975]], [[120.53375, 32.975], [120.53833333333333, 32.975], [120.53833333333333, 32.97], [120.53375, 32.97], [120.53375, 32.975]], [[120.80416666666667, 32.975], [120.80875, 32.975], [120.80875, 32.97], [120.80416666666667, 32.97], [120.80416666666667, 32.975]], [[120.86375, 32.975], [120.86833333333334, 32.975], [120.86833333333334, 32.97], [120.86375, 32.97], [120.86375, 32.975]], [[121.02875, 32.975], [121.03333333333333, 32.975], [121.03333333333333, 32.97], [121.02875, 32.97], [121.02875, 32.975]], [[120.77666666666667, 32.97], [120.78125, 32.97], [120.78125, 32.965], [120.77666666666667, 32.965], [120.77666666666667, 32.97]], [[121.1525, 32.97], [121.15708333333333, 32.97], [121.15708333333333, 32.965], [121.1525, 32.965], [121.1525, 32.97]], [[121.17541666666668, 32.97], [121.18, 32.97], [121.18, 32.965], [121.17541666666668, 32.965], [121.17541666666668, 32.97]], [[120.94166666666666, 32.965], [120.94625, 32.965], [120.94625, 32.96], [120.94166666666666, 32.96], [120.94166666666666, 32.965]], [[121.15708333333333, 32.965], [121.16166666666668, 32.965], [121.16166666666668, 32.96], [121.15708333333333, 32.96], [121.15708333333333, 32.965]], [[121.18916666666667, 32.965], [121.19375000000001, 32.965], [121.19375000000001, 32.96], [121.18916666666667, 32.96], [121.18916666666667, 32.965]], [[121.20750000000001, 32.965], [121.21208333333334, 32.965], [121.21208333333334, 32.96], [121.20750000000001, 32.96], [121.20750000000001, 32.965]], [[121.21666666666667, 32.965], [121.22125, 32.965], [121.22125, 32.96], [121.21666666666667, 32.96], [121.21666666666667, 32.965]], [[120.56125, 32.96], [120.56583333333333, 32.96], [120.56583333333333, 32.955], [120.56125, 32.955], [120.56125, 32.96]], [[120.78125, 32.96], [120.78583333333333, 32.96], [120.78583333333333, 32.955], [120.78125, 32.955], [120.78125, 32.96]], [[120.90041666666667, 32.96], [120.90958333333333, 32.96], [120.90958333333333, 32.955], [120.90041666666667, 32.955], [120.90041666666667, 32.96]], [[121.01958333333333, 32.96], [121.02416666666667, 32.96], [121.02416666666667, 32.955], [121.01958333333333, 32.955], [121.01958333333333, 32.96]], [[121.16625, 32.96], [121.17083333333333, 32.96], [121.17083333333333, 32.955], [121.16625, 32.955], [121.16625, 32.96]], [[120.65291666666667, 32.955], [120.6575, 32.955], [120.6575, 32.95], [120.65291666666667, 32.95], [120.65291666666667, 32.955]], [[120.70791666666666, 32.955], [120.7125, 32.955], [120.7125, 32.95], [120.70791666666666, 32.95], [120.70791666666666, 32.955]], [[120.85458333333334, 32.955], [120.86375, 32.955], [120.86375, 32.95], [120.85458333333334, 32.95], [120.85458333333334, 32.955]], [[120.57041666666666, 32.95], [120.57958333333333, 32.95], [120.57958333333333, 32.945], [120.57041666666666, 32.945], [120.57041666666666, 32.95]], [[120.73541666666667, 32.95], [120.74, 32.95], [120.74, 32.945], [120.73541666666667, 32.945], [120.73541666666667, 32.95]], [[120.74458333333334, 32.95], [120.74916666666667, 32.95], [120.74916666666667, 32.945], [120.74458333333334, 32.945], [120.74458333333334, 32.95]], [[120.9325, 32.95], [120.93708333333333, 32.95], [120.93708333333333, 32.945], [120.9325, 32.945], [120.9325, 32.95]], [[121.00125, 32.95], [121.00583333333334, 32.95], [121.00583333333334, 32.945], [121.00125, 32.945], [121.00125, 32.95]], [[121.17541666666668, 32.95], [121.18, 32.95], [121.18, 32.945], [121.17541666666668, 32.945], [121.17541666666668, 32.95]], [[120.46958333333333, 32.945], [120.47416666666666, 32.945], [120.47416666666666, 32.94], [120.46958333333333, 32.94], [120.46958333333333, 32.945]], [[120.52916666666667, 32.945], [120.53375, 32.945], [120.53375, 32.94], [120.52916666666667, 32.94], [120.52916666666667, 32.945]], [[120.57958333333333, 32.945], [120.58416666666666, 32.945], [120.58416666666666, 32.94], [120.57958333333333, 32.94], [120.57958333333333, 32.945]], [[120.68958333333333, 32.945], [120.69416666666666, 32.945], [120.69416666666666, 32.94], [120.68958333333333, 32.94], [120.68958333333333, 32.945]], [[120.84083333333334, 32.945], [120.84541666666667, 32.945], [120.84541666666667, 32.94], [120.84083333333334, 32.94], [120.84083333333334, 32.945]], [[120.88666666666667, 32.945], [120.89125, 32.945], [120.89125, 32.94], [120.88666666666667, 32.94], [120.88666666666667, 32.945]], [[120.89583333333333, 32.945], [120.90041666666667, 32.945], [120.90041666666667, 32.94], [120.89583333333333, 32.94], [120.89583333333333, 32.945]], [[120.92791666666668, 32.945], [120.9325, 32.945], [120.9325, 32.94], [120.92791666666668, 32.94], [120.92791666666668, 32.945]], [[121.08833333333334, 32.945], [121.09291666666667, 32.945], [121.09291666666667, 32.935], [121.08833333333334, 32.935], [121.08833333333334, 32.945]], [[120.52458333333333, 32.94], [120.52916666666667, 32.94], [120.52916666666667, 32.935], [120.52458333333333, 32.935], [120.52458333333333, 32.94]], [[120.55208333333333, 32.94], [120.55666666666667, 32.94], [120.55666666666667, 32.935], [120.55208333333333, 32.935], [120.55208333333333, 32.94]], [[120.6025, 32.94], [120.60708333333334, 32.94], [120.60708333333334, 32.935], [120.6025, 32.935], [120.6025, 32.94]], [[120.61625, 32.94], [120.62083333333334, 32.94], [120.62083333333334, 32.935], [120.61625, 32.935], [120.61625, 32.94]], [[120.63916666666667, 32.94], [120.64375, 32.94], [120.64375, 32.935], [120.63916666666667, 32.935], [120.63916666666667, 32.94]], [[120.67125, 32.94], [120.67583333333333, 32.94], [120.67583333333333, 32.935], [120.67125, 32.935], [120.67125, 32.94]], [[120.74916666666667, 32.94], [120.75375, 32.94], [120.75375, 32.935], [120.74916666666667, 32.935], [120.74916666666667, 32.94]], [[120.94625, 32.94], [120.95083333333334, 32.94], [120.95083333333334, 32.935], [120.94625, 32.935], [120.94625, 32.94]], [[121.06083333333333, 32.94], [121.07000000000001, 32.94], [121.07000000000001, 32.935], [121.06083333333333, 32.935], [121.06083333333333, 32.94]], [[121.18, 32.94], [121.18458333333334, 32.94], [121.18458333333334, 32.935], [121.18, 32.935], [121.18, 32.94]], [[120.465, 32.935], [120.46958333333333, 32.935], [120.46958333333333, 32.93], [120.465, 32.93], [120.465, 32.935]], [[120.50625, 32.935], [120.51083333333334, 32.935], [120.51083333333334, 32.93], [120.50625, 32.93], [120.50625, 32.935]], [[120.61166666666666, 32.935], [120.61625, 32.935], [120.61625, 32.93], [120.61166666666666, 32.93], [120.61166666666666, 32.935]], [[120.62541666666667, 32.935], [120.63, 32.935], [120.63, 32.93], [120.62541666666667, 32.93], [120.62541666666667, 32.935]], [[120.96000000000001, 32.935], [120.96458333333334, 32.935], [120.96458333333334, 32.93], [120.96000000000001, 32.93], [120.96000000000001, 32.935]], [[120.97375, 32.935], [120.97833333333334, 32.935], [120.97833333333334, 32.93], [120.97375, 32.93], [120.97375, 32.935]], [[121.00125, 32.935], [121.00583333333334, 32.935], [121.00583333333334, 32.93], [121.00125, 32.93], [121.00125, 32.935]], [[121.11583333333334, 32.935], [121.12041666666667, 32.935], [121.12041666666667, 32.93], [121.11583333333334, 32.93], [121.11583333333334, 32.935]], [[121.14791666666667, 32.935], [121.1525, 32.935], [121.1525, 32.93], [121.14791666666667, 32.93], [121.14791666666667, 32.935]], [[120.50166666666667, 32.93], [120.50625, 32.93], [120.50625, 32.925], [120.50166666666667, 32.925], [120.50166666666667, 32.93]], [[120.59791666666666, 32.93], [120.6025, 32.93], [120.6025, 32.925], [120.59791666666666, 32.925], [120.59791666666666, 32.93]], [[120.75833333333334, 32.93], [120.76291666666667, 32.93], [120.76291666666667, 32.925], [120.75833333333334, 32.925], [120.75833333333334, 32.93]], [[120.81333333333333, 32.93], [120.81791666666666, 32.93], [120.81791666666666, 32.925], [120.81333333333333, 32.925], [120.81333333333333, 32.93]], [[120.89583333333333, 32.93], [120.90041666666667, 32.93], [120.90041666666667, 32.925], [120.89583333333333, 32.925], [120.89583333333333, 32.93]], [[120.9325, 32.93], [120.93708333333333, 32.93], [120.93708333333333, 32.925], [120.9325, 32.925], [120.9325, 32.93]], [[120.94166666666666, 32.93], [120.94625, 32.93], [120.94625, 32.925], [120.94166666666666, 32.925], [120.94166666666666, 32.93]], [[121.17541666666668, 32.93], [121.18, 32.93], [121.18, 32.925], [121.17541666666668, 32.925], [121.17541666666668, 32.93]], [[120.465, 32.925], [120.46958333333333, 32.925], [120.46958333333333, 32.92], [120.465, 32.92], [120.465, 32.925]], [[120.60708333333334, 32.925], [120.61166666666666, 32.925], [120.61166666666666, 32.92], [120.60708333333334, 32.92], [120.60708333333334, 32.925]], [[120.62083333333334, 32.925], [120.62541666666667, 32.925], [120.62541666666667, 32.92], [120.62083333333334, 32.92], [120.62083333333334, 32.925]], [[120.66666666666667, 32.925], [120.67125, 32.925], [120.67125, 32.92], [120.66666666666667, 32.92], [120.66666666666667, 32.925]], [[120.68958333333333, 32.925], [120.69416666666666, 32.925], [120.69416666666666, 32.92], [120.68958333333333, 32.92], [120.68958333333333, 32.925]], [[120.76291666666667, 32.925], [120.7675, 32.925], [120.7675, 32.92], [120.76291666666667, 32.92], [120.76291666666667, 32.925]], [[121.17083333333333, 32.925], [121.17541666666668, 32.925], [121.17541666666668, 32.92], [121.17083333333333, 32.92], [121.17083333333333, 32.925]], [[121.22125, 32.925], [121.22583333333334, 32.925], [121.22583333333334, 32.92], [121.22125, 32.92], [121.22125, 32.925]], [[120.6025, 32.92], [120.60708333333334, 32.92], [120.60708333333334, 32.915], [120.6025, 32.915], [120.6025, 32.92]], [[120.84541666666667, 32.92], [120.85458333333334, 32.92], [120.85458333333334, 32.915], [120.84541666666667, 32.915], [120.84541666666667, 32.92]], [[120.86375, 32.92], [120.86833333333334, 32.92], [120.86833333333334, 32.915], [120.86375, 32.915], [120.86375, 32.92]], [[120.87291666666667, 32.92], [120.8775, 32.92], [120.8775, 32.915], [120.87291666666667, 32.915], [120.87291666666667, 32.92]], [[121.00125, 32.92], [121.00583333333334, 32.92], [121.00583333333334, 32.915], [121.00125, 32.915], [121.00125, 32.92]], [[120.48791666666666, 32.915], [120.49249999999999, 32.915], [120.49249999999999, 32.910000000000004], [120.48791666666666, 32.910000000000004], [120.48791666666666, 32.915]], [[120.57041666666666, 32.915], [120.575, 32.915], [120.575, 32.910000000000004], [120.57041666666666, 32.910000000000004], [120.57041666666666, 32.915]], [[120.69875, 32.915], [120.70333333333333, 32.915], [120.70333333333333, 32.910000000000004], [120.69875, 32.910000000000004], [120.69875, 32.915]], [[120.83166666666666, 32.915], [120.83625, 32.915], [120.83625, 32.910000000000004], [120.83166666666666, 32.910000000000004], [120.83166666666666, 32.915]], [[121.01958333333333, 32.915], [121.02416666666667, 32.915], [121.02416666666667, 32.910000000000004], [121.01958333333333, 32.910000000000004], [121.01958333333333, 32.915]], [[121.125, 32.915], [121.12958333333334, 32.915], [121.12958333333334, 32.910000000000004], [121.125, 32.910000000000004], [121.125, 32.915]], [[121.18, 32.915], [121.18916666666667, 32.915], [121.18916666666667, 32.910000000000004], [121.18, 32.910000000000004], [121.18, 32.915]], [[120.465, 32.910000000000004], [120.46958333333333, 32.910000000000004], [120.46958333333333, 32.905], [120.465, 32.905], [120.465, 32.910000000000004]], [[120.56125, 32.910000000000004], [120.56583333333333, 32.910000000000004], [120.56583333333333, 32.905], [120.56125, 32.905], [120.56125, 32.910000000000004]], [[120.59791666666666, 32.910000000000004], [120.6025, 32.910000000000004], [120.6025, 32.905], [120.59791666666666, 32.905], [120.59791666666666, 32.910000000000004]], [[120.61625, 32.910000000000004], [120.62541666666667, 32.910000000000004], [120.62541666666667, 32.905], [120.61625, 32.905], [120.61625, 32.910000000000004]], [[120.81791666666666, 32.910000000000004], [120.8225, 32.910000000000004], [120.8225, 32.905], [120.81791666666666, 32.905], [120.81791666666666, 32.910000000000004]], [[120.84541666666667, 32.910000000000004], [120.85, 32.910000000000004], [120.85, 32.905], [120.84541666666667, 32.905], [120.84541666666667, 32.910000000000004]], [[121.12041666666667, 32.910000000000004], [121.125, 32.910000000000004], [121.125, 32.905], [121.12041666666667, 32.905], [121.12041666666667, 32.910000000000004]], [[120.64833333333333, 32.905], [120.65291666666667, 32.905], [120.65291666666667, 32.9], [120.64833333333333, 32.9], [120.64833333333333, 32.905]], [[120.70791666666666, 32.905], [120.7125, 32.905], [120.7125, 32.9], [120.70791666666666, 32.9], [120.70791666666666, 32.905]], [[120.91875, 32.905], [120.92333333333333, 32.905], [120.92333333333333, 32.9], [120.91875, 32.9], [120.91875, 32.905]], [[120.94625, 32.905], [120.95083333333334, 32.905], [120.95083333333334, 32.9], [120.94625, 32.9], [120.94625, 32.905]], [[120.97375, 32.905], [120.97833333333334, 32.905], [120.97833333333334, 32.9], [120.97375, 32.9], [120.97375, 32.905]], [[121.19375000000001, 32.905], [121.19833333333334, 32.905], [121.19833333333334, 32.9], [121.19375000000001, 32.9], [121.19375000000001, 32.905]], [[120.47416666666666, 32.9], [120.47875, 32.9], [120.47875, 32.895], [120.47416666666666, 32.895], [120.47416666666666, 32.9]], [[120.50166666666667, 32.9], [120.50625, 32.9], [120.50625, 32.89], [120.50166666666667, 32.89], [120.50166666666667, 32.9]], [[120.68958333333333, 32.9], [120.69416666666666, 32.9], [120.69416666666666, 32.895], [120.68958333333333, 32.895], [120.68958333333333, 32.9]], [[120.90958333333333, 32.9], [120.91416666666667, 32.9], [120.91416666666667, 32.895], [120.90958333333333, 32.895], [120.90958333333333, 32.9]], [[121.06083333333333, 32.9], [121.06541666666666, 32.9], [121.06541666666666, 32.895], [121.06083333333333, 32.895], [121.06083333333333, 32.9]], [[121.22125, 32.9], [121.22583333333334, 32.9], [121.22583333333334, 32.895], [121.22125, 32.895], [121.22125, 32.9]], [[120.64833333333333, 32.895], [120.65291666666667, 32.895], [120.65291666666667, 32.89], [120.64833333333333, 32.89], [120.64833333333333, 32.895]], [[120.67125, 32.895], [120.67583333333333, 32.895], [120.67583333333333, 32.89], [120.67125, 32.89], [120.67125, 32.895]], [[120.72166666666666, 32.895], [120.72625000000001, 32.895], [120.72625000000001, 32.89], [120.72166666666666, 32.89], [120.72166666666666, 32.895]], [[121.015, 32.895], [121.01958333333333, 32.895], [121.01958333333333, 32.89], [121.015, 32.89], [121.015, 32.895]], [[121.07916666666667, 32.895], [121.08375000000001, 32.895], [121.08375000000001, 32.89], [121.07916666666667, 32.89], [121.07916666666667, 32.895]], [[121.08833333333334, 32.895], [121.09291666666667, 32.895], [121.09291666666667, 32.89], [121.08833333333334, 32.89], [121.08833333333334, 32.895]], [[121.0975, 32.895], [121.10208333333334, 32.895], [121.10208333333334, 32.89], [121.0975, 32.89], [121.0975, 32.895]], [[120.58875, 32.89], [120.59333333333333, 32.89], [120.59333333333333, 32.885], [120.58875, 32.885], [120.58875, 32.89]], [[120.60708333333334, 32.89], [120.61166666666666, 32.89], [120.61166666666666, 32.885], [120.60708333333334, 32.885], [120.60708333333334, 32.89]], [[120.73083333333334, 32.89], [120.73541666666667, 32.89], [120.73541666666667, 32.885], [120.73083333333334, 32.885], [120.73083333333334, 32.89]], [[120.86375, 32.89], [120.86833333333334, 32.89], [120.86833333333334, 32.885], [120.86375, 32.885], [120.86375, 32.89]], [[121.20291666666667, 32.89], [121.20750000000001, 32.89], [121.20750000000001, 32.885], [121.20291666666667, 32.885], [121.20291666666667, 32.89]], [[120.51541666666667, 32.885], [120.52, 32.885], [120.52, 32.88], [120.51541666666667, 32.88], [120.51541666666667, 32.885]], [[120.69416666666666, 32.885], [120.69875, 32.885], [120.69875, 32.88], [120.69416666666666, 32.88], [120.69416666666666, 32.885]], [[120.89125, 32.885], [120.89583333333333, 32.885], [120.89583333333333, 32.88], [120.89125, 32.88], [120.89125, 32.885]], [[120.905, 32.885], [120.90958333333333, 32.885], [120.90958333333333, 32.88], [120.905, 32.88], [120.905, 32.885]], [[120.94166666666666, 32.885], [120.94625, 32.885], [120.94625, 32.88], [120.94166666666666, 32.88], [120.94166666666666, 32.885]], [[121.015, 32.885], [121.01958333333333, 32.885], [121.01958333333333, 32.88], [121.015, 32.88], [121.015, 32.885]], [[120.50166666666667, 32.88], [120.50625, 32.88], [120.50625, 32.875], [120.50166666666667, 32.875], [120.50166666666667, 32.88]], [[120.5475, 32.88], [120.55208333333333, 32.88], [120.55208333333333, 32.875], [120.5475, 32.875], [120.5475, 32.88]], [[120.56583333333333, 32.88], [120.575, 32.88], [120.575, 32.875], [120.56583333333333, 32.875], [120.56583333333333, 32.88]], [[120.82708333333333, 32.88], [120.83166666666666, 32.88], [120.83166666666666, 32.875], [120.82708333333333, 32.875], [120.82708333333333, 32.88]], [[120.93708333333333, 32.88], [120.94166666666666, 32.88], [120.94166666666666, 32.875], [120.93708333333333, 32.875], [120.93708333333333, 32.88]], [[120.54291666666667, 32.875], [120.5475, 32.875], [120.5475, 32.87], [120.54291666666667, 32.87], [120.54291666666667, 32.875]], [[120.83166666666666, 32.875], [120.83625, 32.875], [120.83625, 32.87], [120.83166666666666, 32.87], [120.83166666666666, 32.875]], [[120.88208333333334, 32.875], [120.88666666666667, 32.875], [120.88666666666667, 32.865], [120.88208333333334, 32.865], [120.88208333333334, 32.875]], [[121.00125, 32.875], [121.00583333333334, 32.875], [121.00583333333334, 32.87], [121.00125, 32.87], [121.00125, 32.875]], [[121.12958333333334, 32.875], [121.13416666666667, 32.875], [121.13416666666667, 32.87], [121.12958333333334, 32.87], [121.12958333333334, 32.875]], [[121.13875, 32.875], [121.14333333333333, 32.875], [121.14333333333333, 32.87], [121.13875, 32.87], [121.13875, 32.875]], [[120.49708333333334, 32.87], [120.50166666666667, 32.87], [120.50166666666667, 32.865], [120.49708333333334, 32.865], [120.49708333333334, 32.87]], [[120.53375, 32.87], [120.53833333333333, 32.87], [120.53833333333333, 32.865], [120.53375, 32.865], [120.53375, 32.87]], [[120.56583333333333, 32.87], [120.57041666666666, 32.87], [120.57041666666666, 32.86], [120.56583333333333, 32.86], [120.56583333333333, 32.87]], [[120.61166666666666, 32.87], [120.61625, 32.87], [120.61625, 32.865], [120.61166666666666, 32.865], [120.61166666666666, 32.87]], [[121.07916666666667, 32.87], [121.08375000000001, 32.87], [121.08375000000001, 32.865], [121.07916666666667, 32.865], [121.07916666666667, 32.87]], [[120.52458333333333, 32.865], [120.52916666666667, 32.865], [120.52916666666667, 32.86], [120.52458333333333, 32.86], [120.52458333333333, 32.865]], [[120.58416666666666, 32.865], [120.58875, 32.865], [120.58875, 32.86], [120.58416666666666, 32.86], [120.58416666666666, 32.865]], [[120.89125, 32.865], [120.89583333333333, 32.865], [120.89583333333333, 32.86], [120.89125, 32.86], [120.89125, 32.865]], [[121.06083333333333, 32.865], [121.06541666666666, 32.865], [121.06541666666666, 32.86], [121.06083333333333, 32.86], [121.06083333333333, 32.865]], [[121.07000000000001, 32.865], [121.07458333333334, 32.865], [121.07458333333334, 32.86], [121.07000000000001, 32.86], [121.07000000000001, 32.865]], [[120.63, 32.86], [120.63458333333334, 32.86], [120.63458333333334, 32.855000000000004], [120.63, 32.855000000000004], [120.63, 32.86]], [[120.72166666666666, 32.86], [120.72625000000001, 32.86], [120.72625000000001, 32.855000000000004], [120.72166666666666, 32.855000000000004], [120.72166666666666, 32.86]], [[120.77666666666667, 32.86], [120.78125, 32.86], [120.78125, 32.85], [120.77666666666667, 32.85], [120.77666666666667, 32.86]], [[120.9875, 32.86], [120.99208333333334, 32.86], [120.99208333333334, 32.855000000000004], [120.9875, 32.855000000000004], [120.9875, 32.86]], [[121.06541666666666, 32.86], [121.07000000000001, 32.86], [121.07000000000001, 32.855000000000004], [121.06541666666666, 32.855000000000004], [121.06541666666666, 32.86]], [[120.65291666666667, 32.855000000000004], [120.6575, 32.855000000000004], [120.6575, 32.85], [120.65291666666667, 32.85], [120.65291666666667, 32.855000000000004]], [[120.66208333333333, 32.855000000000004], [120.66666666666667, 32.855000000000004], [120.66666666666667, 32.85], [120.66208333333333, 32.85], [120.66208333333333, 32.855000000000004]], [[120.74458333333334, 32.855000000000004], [120.74916666666667, 32.855000000000004], [120.74916666666667, 32.85], [120.74458333333334, 32.85], [120.74458333333334, 32.855000000000004]], [[120.91875, 32.855000000000004], [120.92333333333333, 32.855000000000004], [120.92333333333333, 32.85], [120.91875, 32.85], [120.91875, 32.855000000000004]], [[121.07000000000001, 32.855000000000004], [121.07458333333334, 32.855000000000004], [121.07458333333334, 32.85], [121.07000000000001, 32.85], [121.07000000000001, 32.855000000000004]], [[121.19833333333334, 32.855000000000004], [121.20291666666667, 32.855000000000004], [121.20291666666667, 32.85], [121.19833333333334, 32.85], [121.19833333333334, 32.855000000000004]], [[120.8225, 32.85], [120.82708333333333, 32.85], [120.82708333333333, 32.845], [120.8225, 32.845], [120.8225, 32.85]], [[120.85458333333334, 32.85], [120.85916666666667, 32.85], [120.85916666666667, 32.845], [120.85458333333334, 32.845], [120.85458333333334, 32.85]], [[121.10208333333334, 32.85], [121.10666666666667, 32.85], [121.10666666666667, 32.845], [121.10208333333334, 32.845], [121.10208333333334, 32.85]], [[121.13875, 32.85], [121.14333333333333, 32.85], [121.14333333333333, 32.845], [121.13875, 32.845], [121.13875, 32.85]], [[120.57958333333333, 32.845], [120.58416666666666, 32.845], [120.58416666666666, 32.84], [120.57958333333333, 32.84], [120.57958333333333, 32.845]], [[120.69416666666666, 32.845], [120.69875, 32.845], [120.69875, 32.84], [120.69416666666666, 32.84], [120.69416666666666, 32.845]], [[120.88208333333334, 32.845], [120.88666666666667, 32.845], [120.88666666666667, 32.84], [120.88208333333334, 32.84], [120.88208333333334, 32.845]], [[121.00125, 32.845], [121.00583333333334, 32.845], [121.00583333333334, 32.84], [121.00125, 32.84], [121.00125, 32.845]], [[121.125, 32.845], [121.12958333333334, 32.845], [121.12958333333334, 32.84], [121.125, 32.84], [121.125, 32.845]], [[120.56583333333333, 32.84], [120.57041666666666, 32.84], [120.57041666666666, 32.835], [120.56583333333333, 32.835], [120.56583333333333, 32.84]], [[120.77208333333333, 32.84], [120.78125, 32.84], [120.78125, 32.835], [120.77208333333333, 32.835], [120.77208333333333, 32.84]], [[120.82708333333333, 32.84], [120.83166666666666, 32.84], [120.83166666666666, 32.835], [120.82708333333333, 32.835], [120.82708333333333, 32.84]], [[120.97833333333334, 32.84], [120.98291666666667, 32.84], [120.98291666666667, 32.835], [120.97833333333334, 32.835], [120.97833333333334, 32.84]], [[121.12958333333334, 32.84], [121.13416666666667, 32.84], [121.13416666666667, 32.835], [121.12958333333334, 32.835], [121.12958333333334, 32.84]], [[121.14791666666667, 32.84], [121.1525, 32.84], [121.1525, 32.835], [121.14791666666667, 32.835], [121.14791666666667, 32.84]], [[120.57958333333333, 32.835], [120.58416666666666, 32.835], [120.58416666666666, 32.83], [120.57958333333333, 32.83], [120.57958333333333, 32.835]], [[120.75833333333334, 32.835], [120.76291666666667, 32.835], [120.76291666666667, 32.83], [120.75833333333334, 32.83], [120.75833333333334, 32.835]], [[120.78583333333333, 32.835], [120.79041666666667, 32.835], [120.79041666666667, 32.83], [120.78583333333333, 32.83], [120.78583333333333, 32.835]], [[121.0425, 32.835], [121.05166666666668, 32.835], [121.05166666666668, 32.83], [121.0425, 32.83], [121.0425, 32.835]], [[120.54291666666667, 32.83], [120.5475, 32.83], [120.5475, 32.825], [120.54291666666667, 32.825], [120.54291666666667, 32.83]], [[120.55666666666667, 32.83], [120.56125, 32.83], [120.56125, 32.825], [120.55666666666667, 32.825], [120.55666666666667, 32.83]], [[120.63916666666667, 32.83], [120.64375, 32.83], [120.64375, 32.825], [120.63916666666667, 32.825], [120.63916666666667, 32.83]], [[120.65291666666667, 32.83], [120.6575, 32.83], [120.6575, 32.825], [120.65291666666667, 32.825], [120.65291666666667, 32.83]], [[120.80416666666667, 32.83], [120.80875, 32.83], [120.80875, 32.825], [120.80416666666667, 32.825], [120.80416666666667, 32.83]], [[120.8775, 32.83], [120.88208333333334, 32.83], [120.88208333333334, 32.825], [120.8775, 32.825], [120.8775, 32.83]], [[120.905, 32.83], [120.90958333333333, 32.83], [120.90958333333333, 32.825], [120.905, 32.825], [120.905, 32.83]], [[120.99208333333334, 32.83], [120.99666666666667, 32.83], [120.99666666666667, 32.825], [120.99208333333334, 32.825], [120.99208333333334, 32.83]], [[121.03791666666667, 32.83], [121.0425, 32.83], [121.0425, 32.825], [121.03791666666667, 32.825], [121.03791666666667, 32.83]], [[120.74, 32.825], [120.74458333333334, 32.825], [120.74458333333334, 32.82], [120.74, 32.82], [120.74, 32.825]], [[120.78583333333333, 32.825], [120.79041666666667, 32.825], [120.79041666666667, 32.82], [120.78583333333333, 32.82], [120.78583333333333, 32.825]], [[121.02416666666667, 32.825], [121.02875, 32.825], [121.02875, 32.82], [121.02416666666667, 32.82], [121.02416666666667, 32.825]], [[121.08833333333334, 32.825], [121.09291666666667, 32.825], [121.09291666666667, 32.82], [121.08833333333334, 32.82], [121.08833333333334, 32.825]], [[120.57958333333333, 32.82], [120.58416666666666, 32.82], [120.58416666666666, 32.815], [120.57958333333333, 32.815], [120.57958333333333, 32.82]], [[120.64833333333333, 32.82], [120.65291666666667, 32.82], [120.65291666666667, 32.815], [120.64833333333333, 32.815], [120.64833333333333, 32.82]], [[120.66666666666667, 32.82], [120.67125, 32.82], [120.67125, 32.815], [120.66666666666667, 32.815], [120.66666666666667, 32.82]], [[120.91416666666667, 32.82], [120.91875, 32.82], [120.91875, 32.815], [120.91416666666667, 32.815], [120.91416666666667, 32.82]], [[120.96000000000001, 32.82], [120.96458333333334, 32.82], [120.96458333333334, 32.815], [120.96000000000001, 32.815], [120.96000000000001, 32.82]], [[121.11125, 32.82], [121.11583333333334, 32.82], [121.11583333333334, 32.815], [121.11125, 32.815], [121.11125, 32.82]], [[120.77208333333333, 32.815], [120.77666666666667, 32.815], [120.77666666666667, 32.81], [120.77208333333333, 32.81], [120.77208333333333, 32.815]], [[120.86375, 32.815], [120.87291666666667, 32.815], [120.87291666666667, 32.81], [120.86375, 32.81], [120.86375, 32.815]], [[120.905, 32.815], [120.90958333333333, 32.815], [120.90958333333333, 32.81], [120.905, 32.81], [120.905, 32.815]], [[120.94166666666666, 32.815], [120.94625, 32.815], [120.94625, 32.81], [120.94166666666666, 32.81], [120.94166666666666, 32.815]], [[120.57041666666666, 32.81], [120.575, 32.81], [120.575, 32.805], [120.57041666666666, 32.805], [120.57041666666666, 32.81]], [[120.69875, 32.81], [120.70333333333333, 32.81], [120.70333333333333, 32.805], [120.69875, 32.805], [120.69875, 32.81]], [[120.74, 32.81], [120.74916666666667, 32.81], [120.74916666666667, 32.805], [120.74, 32.805], [120.74, 32.81]], [[120.84083333333334, 32.81], [120.84541666666667, 32.81], [120.84541666666667, 32.805], [120.84083333333334, 32.805], [120.84083333333334, 32.81]], [[120.97833333333334, 32.81], [120.98291666666667, 32.81], [120.98291666666667, 32.805], [120.97833333333334, 32.805], [120.97833333333334, 32.81]], [[121.10208333333334, 32.81], [121.10666666666667, 32.81], [121.10666666666667, 32.805], [121.10208333333334, 32.805], [121.10208333333334, 32.81]], [[121.13416666666667, 32.81], [121.13875, 32.81], [121.13875, 32.805], [121.13416666666667, 32.805], [121.13416666666667, 32.81]], [[120.58875, 32.805], [120.59333333333333, 32.805], [120.59333333333333, 32.8], [120.58875, 32.8], [120.58875, 32.805]], [[120.61166666666666, 32.805], [120.61625, 32.805], [120.61625, 32.79], [120.61166666666666, 32.79], [120.61166666666666, 32.805]], [[121.02875, 32.805], [121.03333333333333, 32.805], [121.03333333333333, 32.8], [121.02875, 32.8], [121.02875, 32.805]], [[120.57958333333333, 32.8], [120.58416666666666, 32.8], [120.58416666666666, 32.795], [120.57958333333333, 32.795], [120.57958333333333, 32.8]], [[120.59333333333333, 32.8], [120.59791666666666, 32.8], [120.59791666666666, 32.795], [120.59333333333333, 32.795], [120.59333333333333, 32.8]], [[121.09291666666667, 32.8], [121.0975, 32.8], [121.0975, 32.795], [121.09291666666667, 32.795], [121.09291666666667, 32.8]], [[120.95083333333334, 32.795], [120.95541666666666, 32.795], [120.95541666666666, 32.79], [120.95083333333334, 32.79], [120.95083333333334, 32.795]], [[120.9325, 32.79], [120.93708333333333, 32.79], [120.93708333333333, 32.785000000000004], [120.9325, 32.785000000000004], [120.9325, 32.79]], [[120.74458333333334, 32.785000000000004], [120.74916666666667, 32.785000000000004], [120.74916666666667, 32.78], [120.74458333333334, 32.78], [120.74458333333334, 32.785000000000004]], [[120.85916666666667, 32.785000000000004], [120.86375, 32.785000000000004], [120.86375, 32.775], [120.85916666666667, 32.775], [120.85916666666667, 32.785000000000004]], [[120.91416666666667, 32.785000000000004], [120.91875, 32.785000000000004], [120.91875, 32.78], [120.91416666666667, 32.78], [120.91416666666667, 32.785000000000004]], [[120.93708333333333, 32.785000000000004], [120.94166666666666, 32.785000000000004], [120.94166666666666, 32.78], [120.93708333333333, 32.78], [120.93708333333333, 32.785000000000004]], [[120.96000000000001, 32.785000000000004], [120.96458333333334, 32.785000000000004], [120.96458333333334, 32.78], [120.96000000000001, 32.78], [120.96000000000001, 32.785000000000004]], [[121.00583333333334, 32.785000000000004], [121.01041666666667, 32.785000000000004], [121.01041666666667, 32.78], [121.00583333333334, 32.78], [121.00583333333334, 32.785000000000004]], [[120.685, 32.78], [120.68958333333333, 32.78], [120.68958333333333, 32.775], [120.685, 32.775], [120.685, 32.78]], [[120.79041666666667, 32.78], [120.795, 32.78], [120.795, 32.775], [120.79041666666667, 32.775], [120.79041666666667, 32.78]], [[120.63458333333334, 32.775], [120.63916666666667, 32.775], [120.63916666666667, 32.77], [120.63458333333334, 32.77], [120.63458333333334, 32.775]], [[120.69875, 32.775], [120.70333333333333, 32.775], [120.70333333333333, 32.77], [120.69875, 32.77], [120.69875, 32.775]], [[120.84083333333334, 32.775], [120.84541666666667, 32.775], [120.84541666666667, 32.77], [120.84083333333334, 32.77], [120.84083333333334, 32.775]], [[120.905, 32.775], [120.90958333333333, 32.775], [120.90958333333333, 32.765], [120.905, 32.765], [120.905, 32.775]], [[120.91875, 32.775], [120.92333333333333, 32.775], [120.92333333333333, 32.77], [120.91875, 32.77], [120.91875, 32.775]], [[120.99208333333334, 32.775], [120.99666666666667, 32.775], [120.99666666666667, 32.77], [120.99208333333334, 32.77], [120.99208333333334, 32.775]], [[121.06083333333333, 32.775], [121.06541666666666, 32.775], [121.06541666666666, 32.77], [121.06083333333333, 32.77], [121.06083333333333, 32.775]], [[120.87291666666667, 32.77], [120.8775, 32.77], [120.8775, 32.76], [120.87291666666667, 32.76], [120.87291666666667, 32.77]], [[120.95083333333334, 32.77], [120.95541666666666, 32.77], [120.95541666666666, 32.765], [120.95083333333334, 32.765], [120.95083333333334, 32.77]], [[120.77666666666667, 32.765], [120.78125, 32.765], [120.78125, 32.76], [120.77666666666667, 32.76], [120.77666666666667, 32.765]], [[120.80875, 32.765], [120.81333333333333, 32.765], [120.81333333333333, 32.76], [120.80875, 32.76], [120.80875, 32.765]], [[120.74916666666667, 32.76], [120.75375, 32.76], [120.75375, 32.755], [120.74916666666667, 32.755], [120.74916666666667, 32.76]], [[120.92791666666668, 32.76], [120.9325, 32.76], [120.9325, 32.755], [120.92791666666668, 32.755], [120.92791666666668, 32.76]], [[120.69875, 32.755], [120.70333333333333, 32.755], [120.70333333333333, 32.75], [120.69875, 32.75], [120.69875, 32.755]], [[120.84083333333334, 32.755], [120.84541666666667, 32.755], [120.84541666666667, 32.75], [120.84083333333334, 32.75], [120.84083333333334, 32.755]], [[120.89125, 32.755], [120.89583333333333, 32.755], [120.89583333333333, 32.75], [120.89125, 32.75], [120.89125, 32.755]], [[120.7675, 32.75], [120.77208333333333, 32.75], [120.77208333333333, 32.745000000000005], [120.7675, 32.745000000000005], [120.7675, 32.75]], [[120.77666666666667, 32.745000000000005], [120.78583333333333, 32.745000000000005], [120.78583333333333, 32.74], [120.77666666666667, 32.74], [120.77666666666667, 32.745000000000005]], [[120.79041666666667, 32.745000000000005], [120.795, 32.745000000000005], [120.795, 32.74], [120.79041666666667, 32.74], [120.79041666666667, 32.745000000000005]], [[120.80875, 32.745000000000005], [120.81333333333333, 32.745000000000005], [120.81333333333333, 32.74], [120.80875, 32.74], [120.80875, 32.745000000000005]], [[120.81333333333333, 32.74], [120.81791666666666, 32.74], [120.81791666666666, 32.735], [120.81333333333333, 32.735], [120.81333333333333, 32.74]], [[120.86375, 32.74], [120.86833333333334, 32.74], [120.86833333333334, 32.735], [120.86375, 32.735], [120.86375, 32.74]], [[120.88666666666667, 32.74], [120.89125, 32.74], [120.89125, 32.735], [120.88666666666667, 32.735], [120.88666666666667, 32.74]], [[120.8775, 32.735], [120.88208333333334, 32.735], [120.88208333333334, 32.730000000000004], [120.8775, 32.730000000000004], [120.8775, 32.735]]]]}, "properties": {"class": "water", "class_code": 1, "pixels": 14950, "synthetic": true}}]}